Full_Name,Specialty,Add_Specialty,Full_Address,Practice,Address,City,State,Zip,Phone,URL
"Adegbenga A.. Adetola, MD",Nephrology,Internal Medicine,"3737 MLK, Jr. Blvd., Suite 400 Lynwood, CA 90262",,"3737 MLK, Jr. Blvd., Suite 400 Lynwood, CA 90262",Lynwood,CA,90262,310-631-2838,https://www.stfrancismedicalcenter.com/find-a-provider/adegbenga-a-adetola-md/
"Mehrdad M.. Aghai, MD",Ophthalmology,,"Century Eye Care Medical Center, Inc.1141 W. Redondo Beach Blvd., Suite 101 Gardena, CA 90247","Century Eye Care Medical Center, Inc.","1141 W. Redondo Beach Blvd., Suite 101 Gardena, CA 90247",Gardena,CA,90247,310-767-7814,https://www.stfrancismedicalcenter.com/find-a-provider/mehrdad-m-aghai-md/
"Rosa M.. Aguero, NP",Nurse Practitioner Psych/Mental Health,,"Alliance for Wellness / SoCal Mental Health14860 Roscoe Blvd, Suite 307 Panorama City, CA 91402",Alliance for Wellness / SoCal Mental Health,"14860 Roscoe Blvd, Suite 307 Panorama City, CA 91402",Panorama City,CA,91402,747-998-0387,https://www.stfrancismedicalcenter.com/find-a-provider/rosa-m-aguero-np/
"Artur Ambartsumyan, PA",Physician Assistant,,"501 E HARDY ST, SUITE 407 INGLEWOOD, CA ",,"501 E HARDY ST, SUITE 407 INGLEWOOD, CA ",INGLEWOOD,CA,,310-673-7724,https://www.stfrancismedicalcenter.com/find-a-provider/artur-ambartsumyan-pa/
"Joseph Ahdoot, MD",Pediatric Cardiology,Pediatrics,"Pacific Pediatric Cardiology Medical Grp50 W. Bellefontaine St., Suite 405 Pasadena, CA 91105",Pacific Pediatric Cardiology Medical Grp,"50 W. Bellefontaine St., Suite 405 Pasadena, CA 91105",Pasadena,CA,91105,626-796-9259,https://www.stfrancismedicalcenter.com/find-a-provider/joseph-ahdoot-md/
"Charles Ananian, DPM",Podiatrist,,"3616 E. First St.Los Angeles, CA 90063",,"3616 E. First St.Los Angeles, CA 90063",Los Angeles,CA,90063,323-264-6157,https://www.stfrancismedicalcenter.com/find-a-provider/charles-ananian-dpm/
"Afshin Ahoubim, MD",Critical Care Medicine,Nephrology,"555 East Hardy StreetInglewood, CA 90301",,"555 East Hardy StreetInglewood, CA 90301",Inglewood,CA,90301,917-909-9151,https://www.stfrancismedicalcenter.com/find-a-provider/afshin-ahoubim-md/
"Maxine M.. Anderson, MD",Surgical Critical Care,General Surgery,"3628 E. Imperial Hwy., Suite 204 Lynwood, CA 90262",,"3628 E. Imperial Hwy., Suite 204 Lynwood, CA 90262",Lynwood,CA,90262,424-213-4290,https://www.stfrancismedicalcenter.com/find-a-provider/maxine-m-anderson-md/
"Farzad Alemi, MD",General Surgical Oncology,General Surgery,"3628 E. Imperial Hwy., Suite 103 Lynwood, CA 90262",,"3628 E. Imperial Hwy., Suite 103 Lynwood, CA 90262",Lynwood,CA,90262,310-900-5010,https://www.stfrancismedicalcenter.com/find-a-provider/farzad-alemi-md/
"Muhammad F.. Anees, MD",Internal Medicine,,"Applecare Hospitalists Medical GroupP.O. Box 1088Artesia, CA 90702",Applecare Hospitalists Medical Group,"P.O. Box 1088Artesia, CA 90702",Artesia,CA,90702,562-869-1070,https://www.stfrancismedicalcenter.com/find-a-provider/muhammad-f-anees-md/
"Tricia M.. Aliazis, NP",Nurse Practitioner,,"3621 Martin Luther King Jr. Blvd., Ste. 6 Lynwood, CA 90262",,"3621 Martin Luther King Jr. Blvd., Ste. 6 Lynwood, CA 90262",Lynwood,CA,90262,310-638-9977,https://www.stfrancismedicalcenter.com/find-a-provider/tricia-m-aliazis-np/
"Elizabeth A.. Arena, MD",General Surgical Oncology,General Surgery,"Surgery Group of Los Angeles8635 W. 3rd St., Suite 880W Los Angeles, CA 90048",Surgery Group of Los Angeles,"8635 W. 3rd St., Suite 880W Los Angeles, CA 90048",Los Angeles,CA,90048,310-289-1518,https://www.stfrancismedicalcenter.com/find-a-provider/elizabeth-a-arena-md/
"Mohsen A.. Aljayeh, MD",Internal Medicine,,"8510 Balboa Blvd, 150 Northridge, CA 91325",,"8510 Balboa Blvd, 150 Northridge, CA 91325",Northridge,CA,91325,818-552-6230,https://www.stfrancismedicalcenter.com/find-a-provider/mohsen-a-aljayeh-md/
"Derek R.. Armfield, MD",Radiology - Telemedicine,,"Advanced Teleradiology6789 Quail Hill Parkway no 728Irvine, CA 92603",Advanced Teleradiology,"6789 Quail Hill Parkway no 728Irvine, CA 92603",Irvine,CA,92603,800-723-6186,https://www.stfrancismedicalcenter.com/find-a-provider/derek-r-armfield-md/
"Nidal Alkafarna, PA",Physician Assistant,,"22431 Antonio Pkwy, Suite B160-613Rancho Santa Margarita, CA 92888",,"22431 Antonio Pkwy, Suite B160-613Rancho Santa Margarita, CA 92888",Rancho Santa Margarita,CA,92888,855-727-2251,https://www.stfrancismedicalcenter.com/find-a-provider/nidal-alkafarna-pa/
"Joel A.. Aronowitz, MD",Plastic Surgery,,"8635 W. Third Street, Suite 1090W Los Angeles, CA 90048",,"8635 W. Third Street, Suite 1090W Los Angeles, CA 90048",Los Angeles,CA,90048,310-659-0705,https://www.stfrancismedicalcenter.com/find-a-provider/joel-a-aronowitz-md/
"Ayman Alladawi, MD",Obstetrics and Gynecology,,"8077 Florence Ave., Suite 112 Downey, CA 90240",,"8077 Florence Ave., Suite 112 Downey, CA 90240",Downey,CA,90240,562-904-6031,https://www.stfrancismedicalcenter.com/find-a-provider/ayman-alladawi-md/
"Avo Artinyan, MD",General Surgical Oncology,General Surgery,"1505 Wilson Terrace, Suite 150 Glendale, CA 91206",,"1505 Wilson Terrace, Suite 150 Glendale, CA 91206",Glendale,CA,91206,818-606-2200,https://www.stfrancismedicalcenter.com/find-a-provider/avo-artinyan-md/
"Gwen M.. Allen, MD",Obstetrics and Gynecology,,"Gardena Women's Center1141 W Redondo Beach Blvd, Suite 402 Gardena, CA 90247",Gardena Women's Center,"1141 W Redondo Beach Blvd, Suite 402 Gardena, CA 90247",Gardena,CA,90247,310-329-9492,https://www.stfrancismedicalcenter.com/find-a-provider/gwen-m-allen-md/
"Raj Balasundaram, MD",Internal Medicine,,"Applecare11525 Brookshire Ave, Ste 300 Downey, CA 90241",Applecare,"11525 Brookshire Ave, Ste 300 Downey, CA 90241",Downey,CA,90241,562-869-1070,https://www.stfrancismedicalcenter.com/find-a-provider/raj-balasundaram-md/
"David Aufrichtig, MD",Radiology - Telemedicine,,"Advanced Teleradiology6789 Quail Hill Parkway no 728Irvine, CA 92603",Advanced Teleradiology,"6789 Quail Hill Parkway no 728Irvine, CA 92603",Irvine,CA,92603,800-723-6186,https://www.stfrancismedicalcenter.com/find-a-provider/david-aufrichtig-md/
"Melanie C.. Altamirano, NP",Neurology,,,,,,,,818-906-4944,https://www.stfrancismedicalcenter.com/find-a-provider/?fbclid=IwAR0Gwi2H4D1uqJTOQnCsPcbGhf8EH8_B7z-ZdbsPr8xsMN-9TbY4E-EoPc4
"Alex Balekian, MD",Critical Care Medicine,Pulmonary Medicine,"Pulmonary Consultants and Wellness Center8540 S. Sepulveda Blvd., Suite 1010 Los Angeles, CA 90045",Pulmonary Consultants and Wellness Center,"8540 S. Sepulveda Blvd., Suite 1010 Los Angeles, CA 90045",Los Angeles,CA,90045,310-295-0075,https://www.stfrancismedicalcenter.com/find-a-provider/alex-balekian-md/
"Robby T.. Ayoub, MD",Critical Care Medicine,Internal Medicine,"8201 Newman Ave., Suite 301 Huntington Beach, CA 92647",,"8201 Newman Ave., Suite 301 Huntington Beach, CA 92647",Huntington Beach,CA,92647,714-847-6900,https://www.stfrancismedicalcenter.com/find-a-provider/robby-t-ayoub-md/
"Brady J.. Banta, MD",Radiology - Telemedicine,,"Advanced Teleradiology6789 Quail Hill Parkway no 728Irvine, CA 92603",Advanced Teleradiology,"6789 Quail Hill Parkway no 728Irvine, CA 92603",Irvine,CA,92603,800-723-6186,https://www.stfrancismedicalcenter.com/find-a-provider/brady-j-banta-md/
"Elias I.. Ayoub, MD",Otolaryngology,,"11480 Brookshire Ave Ste 313Downey, CA 90241",,"11480 Brookshire Ave Ste 313Downey, CA 90241",Downey,CA,90241,562-862-5160,https://www.stfrancismedicalcenter.com/find-a-provider/elias-i-ayoub-md/
"Fayez M.. Bany-Mohammed, MD",Neonatal-Perinatal Medicine,Pediatrics,"101 The City Dr. SoOrange, CA 92868",,"101 The City Dr. SoOrange, CA 92868",Orange,CA,92868,714-456-6933,https://www.stfrancismedicalcenter.com/find-a-provider/fayez-m-bany-mohammed-md/
"Eleanor V.. Azurin, MD",Family Medicine,,"Eleanor V Azurin MD Inc3045 E.FLORENCE AVENUEHUNTINGTON PARK, CA 90255",Eleanor V Azurin MD Inc,"3045 E.FLORENCE AVENUEHUNTINGTON PARK, CA 90255",HUNTINGTON PARK,CA,90255,323-587-7771,https://www.stfrancismedicalcenter.com/find-a-provider/eleanor-v-azurin-md/
"Jack Barbour, MD",Psychiatry,,"Barbour & Floyd Medical Associates2610 Industry Way, Suite A Lynwood, CA 90262",Barbour & Floyd Medical Associates,"2610 Industry Way, Suite A Lynwood, CA 90262",Lynwood,CA,90262,310-631-8004,https://www.stfrancismedicalcenter.com/find-a-provider/jack-barbour-md/
"Stevan R.. Clark, MD",General Surgery,,"10220 S. Western Ave.Los Angeles, CA 90047",,"10220 S. Western Ave.Los Angeles, CA 90047",Los Angeles,CA,90047,323-757-1744,https://www.stfrancismedicalcenter.com/find-a-provider/stevan-r-clark-md/
"Brittany B.. Clark, NP",Nurse Practitioner,,"Desert Trauma Surgeons3628 E. Imperial Hwy, Suite 408Lynwood, CA 90262",Desert Trauma Surgeons,"3628 E. Imperial Hwy, Suite 408Lynwood, CA 90262",Lynwood,CA,90262,310-554-4127,https://www.stfrancismedicalcenter.com/find-a-provider/brittany-b-clark-np/
"Michael L.. Cogan, MD",Obstetrics and Gynecology,,"780 Atlantic avenueLong Beach, CA 90813",,"780 Atlantic avenueLong Beach, CA 90813",Long Beach,CA,90813,562-989-5722,https://www.stfrancismedicalcenter.com/find-a-provider/michael-l-cogan-md/
"Cody T.. Donahue, PA",Physician Assistant,,"Vituity3630 E. Imperial Hwy., Emergency Department Lynwood, CA 90262",Vituity,"3630 E. Imperial Hwy., Emergency Department Lynwood, CA 90262",Lynwood,CA,90262,310-900-4534,https://www.stfrancismedicalcenter.com/find-a-provider/cody-t-donahue-pa/
"Jason A.. Davis, MD",Orthopaedic Surgery,,,,,,,,310-900-4788,https://www.stfrancismedicalcenter.com/find-a-provider/?fbclid=IwAR0Gwi2H4D1uqJTOQnCsPcbGhf8EH8_B7z-ZdbsPr8xsMN-9TbY4E-EoPc4
"Kenneth Cohn, MD",Ophthalmology,,"3849 Tweedy Blvd.South Gate, CA 90280",,"3849 Tweedy Blvd.South Gate, CA 90280",South Gate,CA,90280,323-567-1396,https://www.stfrancismedicalcenter.com/find-a-provider/kenneth-cohn-md/
"Arielle M.. Donner, NP",Critical Care Medicine,,"Pulmonary Consultants and Wellness Center, Inc.8540 South Sepulveda Blvd, Suite 1010 Los Angeles, CA 90045","Pulmonary Consultants and Wellness Center, Inc.","8540 South Sepulveda Blvd, Suite 1010 Los Angeles, CA 90045",Los Angeles,CA,90045,310-295-0075,https://www.stfrancismedicalcenter.com/find-a-provider/arielle-m-donner-np/
"Alex Dawoodian, DPM",Podiatrist,,"19360 Rinaldi St #363Porter Ranch, CA 91326",,"19360 Rinaldi St #363Porter Ranch, CA 91326",Porter Ranch,CA,91326,866-895-8716,https://www.stfrancismedicalcenter.com/find-a-provider/alex-dawoodian-dpm/
"Mary Jo L.. Emfield, PA",Physician Assistant,,"Vituity3630 E. Imperial Hwy., Emergency Department Lynwood, CA 90262",Vituity,"3630 E. Imperial Hwy., Emergency Department Lynwood, CA 90262",Lynwood,CA,90262,310-900-4534,https://www.stfrancismedicalcenter.com/find-a-provider/mary-jo-l-emfield-pa/
"Rebecca J.. Coleman, MD",Neonatal-Perinatal Medicine,Pediatrics,"UC Irvine Medical Center101 The City Drive, Bldg 56 - Ste 600 Orange, CA 92868",UC Irvine Medical Center,"101 The City Drive, Bldg 56 - Ste 600 Orange, CA 92868",Orange,CA,92868,714-456-6933,https://www.stfrancismedicalcenter.com/find-a-provider/rebecca-j-coleman-md/
"Nita Doshi, MD",Pediatric Cardiology,Pediatrics,"C/O CHOC Peds Subspecialty Faculty1201 W. La Veta AvenueOrange, CA ",C/O CHOC Peds Subspecialty Faculty,"1201 W. La Veta AvenueOrange, CA ",Orange,CA,,714-509-3939,https://www.stfrancismedicalcenter.com/find-a-provider/nita-doshi-md/
"Bernardita L.. de los Reyes, MD",Obstetrics and Gynecology,,"Clinica Santa Isabel2760 Florence Ave.Huntington Park, CA 90255",Clinica Santa Isabel,"2760 Florence Ave.Huntington Park, CA 90255",Huntington Park,CA,90255,323-587-2222,https://www.stfrancismedicalcenter.com/find-a-provider/bernardita-l-de-los-reyes-md/
"Ersno Eromo, MD",Orthopaedic Surgery- Spine,Orthopaedic Surgery,"1513 S Grand Ave, Suite 300 Los Angeles, CA 90015",,"1513 S Grand Ave, Suite 300 Los Angeles, CA 90015",Los Angeles,CA,90015,310-929-6336,https://www.stfrancismedicalcenter.com/find-a-provider/ersno-eromo-md/
"Annette A.. Coronel-Perey, MD",Pediatrics,,"1045 W Redondo Beach Blvd, Suite 100 Gardena, CA 90247",,"1045 W Redondo Beach Blvd, Suite 100 Gardena, CA 90247",Gardena,CA,90247,310-532-5558,https://www.stfrancismedicalcenter.com/find-a-provider/annette-a-coronel-perey-md/
"Viet Q.. Duong, MD",Emergency Medicine,,"Vituity3630 E. Imperial Hwy., Emergency Department Lynwood, CA 90262",Vituity,"3630 E. Imperial Hwy., Emergency Department Lynwood, CA 90262",Lynwood,CA,90262,310-900-4534,https://www.stfrancismedicalcenter.com/find-a-provider/viet-q-duong-md/
"Elizabeth R.. De Oliveira, MD",Pediatric Cardiology,Pediatrics,"Pacific Pediatric Cardiology50 W. Bellefontaine St., Suite 405 Pasadena, CA 91105",Pacific Pediatric Cardiology,"50 W. Bellefontaine St., Suite 405 Pasadena, CA 91105",Pasadena,CA,91105,626-796-9259,https://www.stfrancismedicalcenter.com/find-a-provider/elizabeth-r-de-oliveira-md/
"Jonathan J.. Eskenazi, MD",Neurology,Internal Medicine,"948 N. Fairfax Ave, Suite 201 Los Angeles, CA 90046",,"948 N. Fairfax Ave, Suite 201 Los Angeles, CA 90046",Los Angeles,CA,90046,310-933-4590,https://www.stfrancismedicalcenter.com/find-a-provider/jonathan-j-eskenazi-md/
"Jeffrey J.. Crudo, MD",Internal Medicine,,"Epic Medical Group4955 Van Nuys Blvd, Ste 308 Sherman Oaks, CA 91403",Epic Medical Group,"4955 Van Nuys Blvd, Ste 308 Sherman Oaks, CA 91403",Sherman Oaks,CA,91403,657-276-7080,https://www.stfrancismedicalcenter.com/find-a-provider/jeffrey-j-crudo-md/
"John T.. Duong, MD",Internal Medicine,,"P.O. Box 1088Artesia, CA 90702",,"P.O. Box 1088Artesia, CA 90702",Artesia,CA,90702,562-869-1070,https://www.stfrancismedicalcenter.com/find-a-provider/john-t-duong-md/
"Liberation B.. Deleon, MD",Pediatrics,,"J & L De Leon Medical Corporation16660 Paramount Blvd., Ste 211 Paramount, CA 90723",J & L De Leon Medical Corporation,"16660 Paramount Blvd., Ste 211 Paramount, CA 90723",Paramount,CA,90723,562-633-5438,https://www.stfrancismedicalcenter.com/find-a-provider/liberation-b-deleon-md/
"Gabriel A.. Estremera, MD",Surgical Critical Care,General Surgery,"3737 Martin Luther King Jr. Blvd., Suite 301 Lynwood, CA 90262",,"3737 Martin Luther King Jr. Blvd., Suite 301 Lynwood, CA 90262",Lynwood,CA,90262,424-403-4778,https://www.stfrancismedicalcenter.com/find-a-provider/gabriel-a-estremera-md/
"Eric R.. Crum, DMD",Oral and Maxillofacial Surgery,,"1670 E 120th St, Module 4E Los Angeles, CA 90059",,"1670 E 120th St, Module 4E Los Angeles, CA 90059",Los Angeles,CA,90059,424-338-1200,https://www.stfrancismedicalcenter.com/find-a-provider/eric-r-crum-dmd/
"Andrew I.. Florentino, MD",Pediatrics,,"Pediatric Clinic3585 E. Imperial Hwy.Lynwood, CA 90262",Pediatric Clinic,"3585 E. Imperial Hwy.Lynwood, CA 90262",Lynwood,CA,90262,310-605-4260,https://www.stfrancismedicalcenter.com/find-a-provider/andrew-i-florentino-md/
"Wilburn P.. Durousseau, MD",Obstetrics and Gynecology,,"3660 E. Imperial Hwy.Lynwood, CA 90262",,"3660 E. Imperial Hwy.Lynwood, CA 90262",Lynwood,CA,90262,310-560-7966,https://www.stfrancismedicalcenter.com/find-a-provider/wilburn-p-durousseau-md/
"Monica Derbigny, MD",Emergency Medicine,,"Vituity3630 E. Imperial Hwy., Emergency Department Lynwood, CA 90262",Vituity,"3630 E. Imperial Hwy., Emergency Department Lynwood, CA 90262",Lynwood,CA,90262,310-900-4534,https://www.stfrancismedicalcenter.com/find-a-provider/monica-derbigny-md/
"Alphonso Faison, DDS",Pediatric Dentistry,Oral and Maxillofacial Surgery,"411 S. Long Beach Blvd., P.O. Box 6317  Compton, CA. 90224-6317 Compton, CA 90221",,"411 S. Long Beach Blvd., P.O. Box 6317  Compton, CA. 90224-6317 Compton, CA 90221",Compton,CA,90221,310-537-2217,https://www.stfrancismedicalcenter.com/find-a-provider/alphonso-faison-dds/
"Rajender S.. Dabas, PA",Physician Assistant,,"P.O. BOX 861393Los Angeles, CA 90086",,"P.O. BOX 861393Los Angeles, CA 90086",Los Angeles,CA,90086,310-237-0023,https://www.stfrancismedicalcenter.com/find-a-provider/rajender-s-dabas-pa/
"Gary E.. Ford, MD",Otolaryngology,,"1045 Redondo Beach Blvd., Suite 575 Gardena, CA 90247",,"1045 Redondo Beach Blvd., Suite 575 Gardena, CA 90247",Gardena,CA,90247,310-329-8633,https://www.stfrancismedicalcenter.com/find-a-provider/gary-e-ford-md/
"Jude O.. Duru, RN",Psychiatry,,,,,,,,310-900-8210,https://www.stfrancismedicalcenter.com/find-a-provider/?fbclid=IwAR0Gwi2H4D1uqJTOQnCsPcbGhf8EH8_B7z-ZdbsPr8xsMN-9TbY4E-EoPc4
"Edmond V.. Derderian, MD",Hospitalist,Internal Medicine,"Epic Medical Group4955 Van Nuys Blvd, Ste 308 Sherman Oaks, CA 91403",Epic Medical Group,"4955 Van Nuys Blvd, Ste 308 Sherman Oaks, CA 91403",Sherman Oaks,CA,91403,657-276-7080,https://www.stfrancismedicalcenter.com/find-a-provider/edmond-v-derderian-md/
"Jari E.. Faison, DDS",Pediatric Dentistry,Oral and Maxillofacial Surgery,"411 S. Long Beach Blvd.Compton, CA 90221",,"411 S. Long Beach Blvd.Compton, CA 90221",Compton,CA,90221,310-537-2217,https://www.stfrancismedicalcenter.com/find-a-provider/jari-e-faison-dds/
"Danielle N.. Dabbs, DO",Surgical Critical Care,General Surgery,"3737 Martin Luther King Jr. Blvd., Suite 301 Lynwood, CA 90262",,"3737 Martin Luther King Jr. Blvd., Suite 301 Lynwood, CA 90262",Lynwood,CA,90262,424-403-4778,https://www.stfrancismedicalcenter.com/find-a-provider/danielle-n-dabbs-do/
"Andrew J.. Fragen, MD",General Surgery,Surgical Critical Care,"Desert Trauma Surgeons3628 E. Imperial Hwy, Suite 408Lynwood, CA 90262",Desert Trauma Surgeons,"3628 E. Imperial Hwy, Suite 408Lynwood, CA 90262",Lynwood,CA,90262,310-554-4127,https://www.stfrancismedicalcenter.com/find-a-provider/andrew-j-fragen-md/
"Diana Echeverry-Franck, MD","Endocrinology, Diabetes and Metabolism",Internal Medicine,"LA Endocrine Care Inc3621 MLK Jr. Blvd., Suite 1 Lynwood, CA 90262",LA Endocrine Care Inc,"3621 MLK Jr. Blvd., Suite 1 Lynwood, CA 90262",Lynwood,CA,90262,310-635-6002,https://www.stfrancismedicalcenter.com/find-a-provider/diana-echeverry-franck-md/
"Berj Dermendjian, DO",Internal Medicine,,"Epic Medical Group4955 Van Nuys Blvd, Ste 308 Sherman Oaks, CA 91403",Epic Medical Group,"4955 Van Nuys Blvd, Ste 308 Sherman Oaks, CA 91403",Sherman Oaks,CA,91403,213-279-1220,https://www.stfrancismedicalcenter.com/find-a-provider/berj-dermendjian-do/
"Kenneth W.. Fan, DO",Obstetrics and Gynecology,,"AllSafe Medical Group8077 Florence Ave, Ste 112 Downey, CA 90240",AllSafe Medical Group,"8077 Florence Ave, Ste 112 Downey, CA 90240",Downey,CA,90240,562-904-6031,https://www.stfrancismedicalcenter.com/find-a-provider/kenneth-w-fan-do/
"Chafik Dakak, MD",Pediatrics,,"3301 Beechwood Ave.Lynwood, CA 90262",,"3301 Beechwood Ave.Lynwood, CA 90262",Lynwood,CA,90262,310-604-0105,https://www.stfrancismedicalcenter.com/find-a-provider/chafik-dakak-md/
"David A.. Friedberg, MD",Orthopaedic Surgery,,"St Francis Orthopaedics3628 E. Imperial Hwy., Suite 300 Lynwood, CA 90262",St Francis Orthopaedics,"3628 E. Imperial Hwy., Suite 300 Lynwood, CA 90262",Lynwood,CA,90262,310-900-4788,https://www.stfrancismedicalcenter.com/find-a-provider/david-a-friedberg-md/
"Arthur J.. Edelstein, MD",Ophthalmology,,"3737 MLK Jr. Blvd., Suite 340 Lynwood, CA 90262",,"3737 MLK Jr. Blvd., Suite 340 Lynwood, CA 90262",Lynwood,CA,90262,310-638-0402,https://www.stfrancismedicalcenter.com/find-a-provider/arthur-j-edelstein-md/
"Mark W.. Deseran, MD",Diagnostic Radiology,,"SFMC - Radiology Dept3630 E. Imperial Hwy.Lynwood, CA 90262",SFMC - Radiology Dept,"3630 E. Imperial Hwy.Lynwood, CA 90262",Lynwood,CA,90262,310-900-2750,https://www.stfrancismedicalcenter.com/find-a-provider/mark-w-deseran-md/
"Amin Farah, MD",Cardiovascular Disease,Internal Medicine,"Cardio Medical Consultants Group3737 MLK Jr. Blvd., Suite 401 Lynwood, CA 90262",Cardio Medical Consultants Group,"3737 MLK Jr. Blvd., Suite 401 Lynwood, CA 90262",Lynwood,CA,90262,310-604-0443,https://www.stfrancismedicalcenter.com/find-a-provider/amin-farah-md/
"Maria L.. Davis, MD",Emergency Medicine,,"Vituity3630 E. Imperial Hwy., Emergency Department Lynwood, CA 90262",Vituity,"3630 E. Imperial Hwy., Emergency Department Lynwood, CA 90262",Lynwood,CA,90262,310-900-4534,https://www.stfrancismedicalcenter.com/find-a-provider/maria-l-davis-md/
"Hugh P.. Fulmer, MD",Infectious Disease,Internal Medicine,"3621 MLK Jr. Blvd., Suite 6 Lynwood, CA 90262",,"3621 MLK Jr. Blvd., Suite 6 Lynwood, CA 90262",Lynwood,CA,90262,310-605-0128,https://www.stfrancismedicalcenter.com/find-a-provider/hugh-p-fulmer-md/
"Hossein Eftekhari, MD",Interventional Cardiology,,"Cardiovascular Medical Associates8317 Davis St., Suite A Downey, CA 90241",Cardiovascular Medical Associates,"8317 Davis St., Suite A Downey, CA 90241",Downey,CA,90241,562-869-1511,https://www.stfrancismedicalcenter.com/find-a-provider/hossein-eftekhari-md/
"Jason H.. Deutsch, MD",Diagnostic Radiology,,"SFMC - Radiology Dept3630 E. Imperial Hwy.Lynwood, CA 90262",SFMC - Radiology Dept,"3630 E. Imperial Hwy.Lynwood, CA 90262",Lynwood,CA,90262,310-900-2750,https://www.stfrancismedicalcenter.com/find-a-provider/jason-h-deutsch-md/
"Doralice N.. Ferreira, DO",Internal Medicine,,"Applecare11525 Brookshire Ave, Ste 300 Downey, CA 90241",Applecare,"11525 Brookshire Ave, Ste 300 Downey, CA 90241",Downey,CA,90241,562-869-1070,https://www.stfrancismedicalcenter.com/find-a-provider/doralice-n-ferreira-do/
"Gary N.. Garshfield, MD",Pathology,,"SFMC - Pathology Dept., 3630 Imperial Hwy Lynwood, CA 90262",,"SFMC - Pathology Dept., 3630 Imperial Hwy Lynwood, CA 90262",Lynwood,CA,90262,310-900-8615,https://www.stfrancismedicalcenter.com/find-a-provider/gary-n-garshfield-md/
"Mohamed A.. El-Shahawy, MD",Nephrology,Internal Medicine,"5830 Whittier Blvd.Los Angeles, CA 90022",,"5830 Whittier Blvd.Los Angeles, CA 90022",Los Angeles,CA,90022,323-725-0051,https://www.stfrancismedicalcenter.com/find-a-provider/mohamed-a-el-shahawy-md/
"Larnell Marshod Ferrell, MD",Emergency Medicine,,"Vituity3630 E. Imperial Hwy., Emergency Department Lynwood, CA 90262",Vituity,"3630 E. Imperial Hwy., Emergency Department Lynwood, CA 90262",Lynwood,CA,90262,310-900-4534,https://www.stfrancismedicalcenter.com/find-a-provider/larnell-marshod-ferrell-md/
"Christopher G.. Goring, MD",Orthopaedic Surgery,,"Joint Replacement Insitute3630 E. Imperial Highway, 3rd floor Lynwood, CA 90262",Joint Replacement Insitute,"3630 E. Imperial Highway, 3rd floor Lynwood, CA 90262",Lynwood,CA,90262,310-900-4788,https://www.stfrancismedicalcenter.com/find-a-provider/christopher-g-goring-md/
"Sharon George, MD",Internal Medicine,,"Applecare Hospitalist Medical Group11525 Brookshire Ave, Ste 300 Downey, CA 90241",Applecare Hospitalist Medical Group,"11525 Brookshire Ave, Ste 300 Downey, CA 90241",Downey,CA,90241,562-869-1070,https://www.stfrancismedicalcenter.com/find-a-provider/sharon-george-md/
"Joshua D.. Ellenhorn, MD",General Surgical Oncology,General Surgery,"Surgery Group of Los Angeles8635 W. Third Street, Suite 880W Los Angeles, CA 90048",Surgery Group of Los Angeles,"8635 W. Third Street, Suite 880W Los Angeles, CA 90048",Los Angeles,CA,90048,310-289-1518,https://www.stfrancismedicalcenter.com/find-a-provider/joshua-d-ellenhorn-md/
"Denise L.. Fisher, NP",Nurse Practitioner,,"3630 E. Imperial Hwy, Neuro Dept Lynwood, CA 90262",,"3630 E. Imperial Hwy, Neuro Dept Lynwood, CA 90262",Lynwood,CA,90262,310-900-8526,https://www.stfrancismedicalcenter.com/find-a-provider/denise-l-fisher-np/
"Ramon N.. Guadiz, MD",Nephrology,Internal Medicine,"Renal Medical Associates3625 MLK Jr. Blvd., Suite 2 Lynwood, CA 90262",Renal Medical Associates,"3625 MLK Jr. Blvd., Suite 2 Lynwood, CA 90262",Lynwood,CA,90262,310-638-0533,https://www.stfrancismedicalcenter.com/find-a-provider/ramon-n-guadiz-md/
"Hiruy H.. Gessesse, MD",Psychiatry,,"4712 Admiralty Way, Suite 579 Marina del Rey, CA 90292",,"4712 Admiralty Way, Suite 579 Marina del Rey, CA 90292",Marina del Rey,CA,90292,310-936-9906,https://www.stfrancismedicalcenter.com/find-a-provider/hiruy-h-gessesse-md/
"Robert Flashman, MD",Emergency Medicine,,"Vituity3630 E. Imperial Hwy., Emergency Department Lynwood, CA 90262",Vituity,"3630 E. Imperial Hwy., Emergency Department Lynwood, CA 90262",Lynwood,CA,90262,310-900-4534,https://www.stfrancismedicalcenter.com/find-a-provider/robert-flashman-md/
"Narayana R.. Gunda, MD",Geriatric Medicine,Internal Medicine,"11525 Brookshire Ave, #300 Downey, CA 90241",,"11525 Brookshire Ave, #300 Downey, CA 90241",Downey,CA,90241,562-869-1070,https://www.stfrancismedicalcenter.com/find-a-provider/narayana-r-gunda-md/
"Ignatius P.. Godoy, MD",Pediatrics,,"16660 Paramount Blvd. Ste #206Paramount, CA 90723",,"16660 Paramount Blvd. Ste #206Paramount, CA 90723",Paramount,CA,90723,562-634-9433,https://www.stfrancismedicalcenter.com/find-a-provider/ignatius-p-godoy-md/
"Ajay Gupta, MD",Nephrology,Internal Medicine,"12804 Heritage Pl.Cerritos, CA 90703",,"12804 Heritage Pl.Cerritos, CA 90703",Cerritos,CA,90703,562-412-6259,https://www.stfrancismedicalcenter.com/find-a-provider/ajay-gupta-md/
"Gol M.. Golshani, MD",Hematology/Oncology,,"3300 E South St., Suite 304 Long Beach, CA 90805",,"3300 E South St., Suite 304 Long Beach, CA 90805",Long Beach,CA,90805,562-232-0550,https://www.stfrancismedicalcenter.com/find-a-provider/gol-m-golshani-md/
"Onaona Gurney, MD",Surgical Critical Care,General Surgery,"3737 Martin Luther King Jr. Blvd, Suite 301 Lynwood, CA 92602",,"3737 Martin Luther King Jr. Blvd, Suite 301 Lynwood, CA 92602",Lynwood,CA,92602,424-403-4778,https://www.stfrancismedicalcenter.com/find-a-provider/onaona-gurney-md/
"Carmen P.. Gonzales-Nate, MD",Psychiatry,,"3737 MLK Jr. Blvd., Suite 550 Lynwood, CA 90262",,"3737 MLK Jr. Blvd., Suite 550 Lynwood, CA 90262",Lynwood,CA,90262,310-609-3890,https://www.stfrancismedicalcenter.com/find-a-provider/carmen-p-gonzales-nate-md/
"John Ho, MD",Pediatric Cardiology,Pediatrics,"Pacific Pediatric Cardiology50 Bellefontaine St., Suite 405 Pasadena, CA 91105",Pacific Pediatric Cardiology,"50 Bellefontaine St., Suite 405 Pasadena, CA 91105",Pasadena,CA,91105,626-796-9259,https://www.stfrancismedicalcenter.com/find-a-provider/john-ho-md/
"Carlos R.. Guzman, MD",General Surgery,,"3975 Dalton AveLos Angeles, CA 90062",,"3975 Dalton AveLos Angeles, CA 90062",Los Angeles,CA,90062,213-595-2358,https://www.stfrancismedicalcenter.com/find-a-provider/carlos-r-guzman-md/
"Eduardo Gonzalez, MD",Family Medicine,,"3625 MLK Jr. Blvd., Suite 7 Lynwood, CA 90262",,"3625 MLK Jr. Blvd., Suite 7 Lynwood, CA 90262",Lynwood,CA,90262,310-763-1336,https://www.stfrancismedicalcenter.com/find-a-provider/eduardo-gonzalez-md/
"Andy Hong, MD",Nephrology,Internal Medicine,"3625 MLK Jr. Blvd., Suite 5 Lynwood, CA 90262",,"3625 MLK Jr. Blvd., Suite 5 Lynwood, CA 90262",Lynwood,CA,90262,310-763-7504,https://www.stfrancismedicalcenter.com/find-a-provider/andy-hong-md/
"Edgar X.. Guzman-Suarez, MD",Critical Care Medicine,Nephrology,"555 East Hardy StreetInglewood, CA 90301",,"555 East Hardy StreetInglewood, CA 90301",Inglewood,CA,90301,310-680-4544,https://www.stfrancismedicalcenter.com/find-a-provider/edgar-x-guzman-suarez-md/
"Christopher M.. Hoshino, MD",Orthopaedic Surgery,,"Christopher Hoshino MD Inc2865 Atlantic Ave., Suite 221 Long Beach, CA 90806",Christopher Hoshino MD Inc,"2865 Atlantic Ave., Suite 221 Long Beach, CA 90806",Long Beach,CA,90806,562-912-7437,https://www.stfrancismedicalcenter.com/find-a-provider/christopher-m-hoshino-md/
"Prema S.. Hampapur, DPM",Podiatric Surgery,Wound Care,"4911 Van Nuys BlvdSherman Oaks, CA 91401",,"4911 Van Nuys BlvdSherman Oaks, CA 91401",Sherman Oaks,CA,91401,818-205-1995,https://www.stfrancismedicalcenter.com/find-a-provider/prema-s-hampapur-dpm/
"Joseph K.. Hsu, MD",Ophthalmology,,"8333 Iowa St, Ste 202 Downey, CA 90241",,"8333 Iowa St, Ste 202 Downey, CA 90241",Downey,CA,90241,562-861-7291,https://www.stfrancismedicalcenter.com/find-a-provider/joseph-k-hsu-md/
"Syed A.. Hasan, MD",Internal Medicine,,"8510 Balboa Blvd., Suite 150 Northridge, CA 91325",,"8510 Balboa Blvd., Suite 150 Northridge, CA 91325",Northridge,CA,91325,818-552-6230,https://www.stfrancismedicalcenter.com/find-a-provider/syed-a-hasan-md/
"Jimmy C.. Huang, MD",Diagnostic Radiology,,"SFMC - Radiology Dept3630 E. Imperial Hwy.Lynwood, CA 90262",SFMC - Radiology Dept,"3630 E. Imperial Hwy.Lynwood, CA 90262",Lynwood,CA,90262,310-900-2750,https://www.stfrancismedicalcenter.com/find-a-provider/jimmy-c-huang-md/
"Gerald P.. Henry, MD",Obstetrics and Gynecology,,"3628 E. Imperial Hwy, Suite 200 Lynwood, CA 90262",,"3628 E. Imperial Hwy, Suite 200 Lynwood, CA 90262",Lynwood,CA,90262,310-603-2345,https://www.stfrancismedicalcenter.com/find-a-provider/gerald-p-henry-md/
"David B.. Jackson, MD",Radiology - Telemedicine,,"Advanced TeleRadiologyP.O. Box 53803Irvine, CA 92603",Advanced TeleRadiology,"P.O. Box 53803Irvine, CA 92603",Irvine,CA,92603,888-225-0628,https://www.stfrancismedicalcenter.com/find-a-provider/david-b-jackson-md/
"Kiki Hurt, MD",Anesthesiology,Critical Care Medicine,"3630 E. Imperial Hwy, Anesthesia Lynwood, CA 90262",,"3630 E. Imperial Hwy, Anesthesia Lynwood, CA 90262",Lynwood,CA,90262,213-747-3588,https://www.stfrancismedicalcenter.com/find-a-provider/kiki-hurt-md/
"Munther A.. Hijazin, MD",Neurology,Internal Medicine,"Prentice, Mitri and Hijazin Neurological Assoc10916 Downey Ave.Downey, CA 90241","Prentice, Mitri and Hijazin Neurological Assoc","10916 Downey Ave.Downey, CA 90241",Downey,CA,90241,562-861-1988,https://www.stfrancismedicalcenter.com/find-a-provider/munther-a-hijazin-md/
"Javier A.. Jardon, MD",Ophthalmology,,"4131 Slauson aveMaywood, CA 91911",,"4131 Slauson aveMaywood, CA 91911",Maywood,CA,91911,323-749-8100,https://www.stfrancismedicalcenter.com/find-a-provider/javier-a-jardon-md/
"Tanvir Hussain, MD",Cardiovascular Disease,Internal Medicine,"Cardio Medical Consultants Group3737 Martin Luther King Jr. Blvd., Suite 401 Lynwood, CA 90262",Cardio Medical Consultants Group,"3737 Martin Luther King Jr. Blvd., Suite 401 Lynwood, CA 90262",Lynwood,CA,90262,310-604-0443,https://www.stfrancismedicalcenter.com/find-a-provider/tanvir-hussain-md/
"Win Win Hlaing, MD",Nephrology,,"101 E Beverly Blvd Ste 304Montebello, CA 90640",,"101 E Beverly Blvd Ste 304Montebello, CA 90640",Montebello,CA,90640,323-722-7418,https://www.stfrancismedicalcenter.com/find-a-provider/win-win-hlaing-md/
"Gamini S.. Jayasinghe, MD",Psychiatry,,"8522 Travistuck PlaceBuena Park, CA 90621",,"8522 Travistuck PlaceBuena Park, CA 90621",Buena Park,CA,90621,714-523-8191,https://www.stfrancismedicalcenter.com/find-a-provider/gamini-s-jayasinghe-md/
"Farabi M.. Hussain, MD",General Surgery,,"Desert Trauma Surgeons3628 E. Imperial Hwy, Suite 408Lynwood, CA 90262",Desert Trauma Surgeons,"3628 E. Imperial Hwy, Suite 408Lynwood, CA 90262",Lynwood,CA,90262,310-554-4127,https://www.stfrancismedicalcenter.com/find-a-provider/farabi-m-hussain-md/
"Gaston J.. Jeremiah, PA",Physician Assistant,,"Physician Assistant Specialists of CA22431 Antonio Pkwy B160-613Rancho Santa Margarita, CA 92688",Physician Assistant Specialists of CA,"22431 Antonio Pkwy B160-613Rancho Santa Margarita, CA 92688",Rancho Santa Margarita,CA,92688,855-727-2251,https://www.stfrancismedicalcenter.com/find-a-provider/gaston-j-jeremiah-pa/
"Brian Ichwan, MD",Emergency Medicine,,"Vituity3630 E. Imperial Hwy., Emergency Department Lynwood, CA 90262",Vituity,"3630 E. Imperial Hwy., Emergency Department Lynwood, CA 90262",Lynwood,CA,90262,310-900-4534,https://www.stfrancismedicalcenter.com/find-a-provider/brian-ichwan-md/
"Wang (James) W.. Ji, MD",Internal Medicine,,"8510 Balboa Blvd, suite 150 NORTHRIDGE, CA 91325",,"8510 Balboa Blvd, suite 150 NORTHRIDGE, CA 91325",NORTHRIDGE,CA,91325,818-552-6230,https://www.stfrancismedicalcenter.com/find-a-provider/wang-james-w-ji-md/
"Samuel Im, MD",Obstetrics and Gynecology,Gynecologic Oncology,"12462 Putnam St, Suite 303 Whittier, CA 90602",,"12462 Putnam St, Suite 303 Whittier, CA 90602",Whittier,CA,90602,562-789-5440,https://www.stfrancismedicalcenter.com/find-a-provider/samuel-im-md/
"Farzin Kabaei, MD",Orthopaedic Surgery,,"8436 W 3rd Street, Suite 800 Los Angeles, CA 90048",,"8436 W 3rd Street, Suite 800 Los Angeles, CA 90048",Los Angeles,CA,90048,310-792-9300,https://www.stfrancismedicalcenter.com/find-a-provider/farzin-kabaei-md/
"Brian Jimenez, PA",,,"Vituity3630 E. Imperial Hwy., Emergency Department Lynwood, CA 90262",Vituity,"3630 E. Imperial Hwy., Emergency Department Lynwood, CA 90262",Lynwood,CA,90262,310-900-4534,https://www.stfrancismedicalcenter.com/find-a-provider/brian-jimenez-pa/
"Kaushik Ivaturi, MD",Nephrology,Internal Medicine,"ProHealth Partners A Medical Group Inc2888 LONG BEACH BLVD STE 235LONG BEACH, CA 90806",ProHealth Partners A Medical Group Inc,"2888 LONG BEACH BLVD STE 235LONG BEACH, CA 90806",LONG BEACH,CA,90806,562-424-4447,https://www.stfrancismedicalcenter.com/find-a-provider/kaushik-ivaturi-md/
"Poonam S.. Kalkat, NP",Nurse Practitioner,,"Desert Trauma Surgeons3628 E. Imperial Hwy, Suite 408Lynwood, CA 90262",Desert Trauma Surgeons,"3628 E. Imperial Hwy, Suite 408Lynwood, CA 90262",Lynwood,CA,90262,310-554-4127,https://www.stfrancismedicalcenter.com/find-a-provider/poonam-s-kalkat-np/
"Renu V.. Jivrajka, MD",Ophthalmology,,"Shammas Eye Medical Center3510 MLK Jr. Blvd.Lynwood, CA 90262",Shammas Eye Medical Center,"3510 MLK Jr. Blvd.Lynwood, CA 90262",Lynwood,CA,90262,310-638-9391,https://www.stfrancismedicalcenter.com/find-a-provider/renu-v-jivrajka-md/
"Mohammad R.. Jaber, MD",Vascular Surgery,,"8043 2nd Street, Suite 105 Downey, CA 90241",,"8043 2nd Street, Suite 105 Downey, CA 90241",Downey,CA,90241,562-862-1134,https://www.stfrancismedicalcenter.com/find-a-provider/mohammad-r-jaber-md/
"Bishoy G.. Kamel, MD",Internal Medicine,,"Epic Medical Group4955 Van Nuys Blvd, Ste 308 Sherman Oaks, CA 91403",Epic Medical Group,"4955 Van Nuys Blvd, Ste 308 Sherman Oaks, CA 91403",Sherman Oaks,CA,91403,213-279-1220,https://www.stfrancismedicalcenter.com/find-a-provider/bishoy-g-kamel-md/
"Toni D.. Johnson-Chavis, MD",Pediatrics,,"403 S. Long Beach Blvd., Suite B Compton, CA 90221",,"403 S. Long Beach Blvd., Suite B Compton, CA 90221",Compton,CA,90221,323-774-6551,https://www.stfrancismedicalcenter.com/find-a-provider/toni-d-johnson-chavis-md/
"Anjala Kanda, DPM",Podiatrist,,"14642 Newport Ave. #450Tustin, CA 92780",,"14642 Newport Ave. #450Tustin, CA 92780",Tustin,CA,92780,714-669-4422,https://www.stfrancismedicalcenter.com/find-a-provider/anjala-kanda-dpm/
"David O.. Jones, MD",Emergency Medicine,,"Vituity3630 E. Imperial Hwy., Emergency Department Lynwood, CA 90262",Vituity,"3630 E. Imperial Hwy., Emergency Department Lynwood, CA 90262",Lynwood,CA,90262,310-900-4534,https://www.stfrancismedicalcenter.com/find-a-provider/david-o-jones-md/
"Frangis Karamedin, MD",Pediatrics,,"3680 E. Imperial Hwy., Suite 306 Lynwood, CA 90262",,"3680 E. Imperial Hwy., Suite 306 Lynwood, CA 90262",Lynwood,CA,90262,310-609-1500,https://www.stfrancismedicalcenter.com/find-a-provider/frangis-karamedin-md/
"Reginald Jones, MD",Surgical Critical Care,General Surgery,"3628 E. Imperial Hwy., Suite 204 Lynwood, CA 90262",,"3628 E. Imperial Hwy., Suite 204 Lynwood, CA 90262",Lynwood,CA,90262,424-213-4290,https://www.stfrancismedicalcenter.com/find-a-provider/reginald-jones-md/
"Pallavi Kasukurthi, MD",Internal Medicine,,"Applecare Hospitalist Medical GroupP.O. Box 1088Artesia, CA 90702",Applecare Hospitalist Medical Group,"P.O. Box 1088Artesia, CA 90702",Artesia,CA,90702,562-869-1070,https://www.stfrancismedicalcenter.com/find-a-provider/pallavi-kasukurthi-md/
"Navelle E.. Jones, MD",Pediatrics,,"403 S. Long Beach Blvd., Suite B Compton, CA 90221",,"403 S. Long Beach Blvd., Suite B Compton, CA 90221",Compton,CA,90221,323-774-6551,https://www.stfrancismedicalcenter.com/find-a-provider/navelle-e-jones-md/
"Sendhil K.. Krishnan, MD",Interventional Cardiology,,"Cardio Medical Consultants Group3737 Martin Luther King Jr. Blvd., Suite 401 Lynwood, CA 90262",Cardio Medical Consultants Group,"3737 Martin Luther King Jr. Blvd., Suite 401 Lynwood, CA 90262",Lynwood,CA,90262,310-604-0443,https://www.stfrancismedicalcenter.com/find-a-provider/sendhil-k-krishnan-md/
"Jon P.. Kea, MD",Hospice and Palliative Medicine,Internal Medicine,"3630 East Imperial HwyLynwood, CA 90262",,"3630 East Imperial HwyLynwood, CA 90262",Lynwood,CA,90262,310-421-8295,https://www.stfrancismedicalcenter.com/find-a-provider/jon-p-kea-md/
"Wilbert C.. Jordan, MD",Infectious Disease,Internal Medicine,"16660 Paramount Blvd., Suite 303 Paramount, CA 90723",,"16660 Paramount Blvd., Suite 303 Paramount, CA 90723",Paramount,CA,90723,562-630-1415,https://www.stfrancismedicalcenter.com/find-a-provider/wilbert-c-jordan-md/
"Ashok Kumar, MD",Pulmonary Medicine,Internal Medicine,"4477 W. 118th St., Suite 200 Hawthorne, CA 90250",,"4477 W. 118th St., Suite 200 Hawthorne, CA 90250",Hawthorne,CA,90250,310-675-4440,https://www.stfrancismedicalcenter.com/find-a-provider/ashok-kumar-md/
"Sandeep K.. Khanna, MD",Ophthalmology,,"1700 E. Cesar Chavez Ave., Suite 3400 Los Angeles, CA 90033",,"1700 E. Cesar Chavez Ave., Suite 3400 Los Angeles, CA 90033",Los Angeles,CA,90033,844-211-5462,https://www.stfrancismedicalcenter.com/find-a-provider/sandeep-k-khanna-md/
"Edward H.. Kwon, MD",Surgical Critical Care,General Surgery,"Edward Kwon, MD, Inc3737 MLK Jr., Blvd., Suite 301Lynwood, CA 90262","Edward Kwon, MD, Inc","3737 MLK Jr., Blvd., Suite 301Lynwood, CA 90262",Lynwood,CA,90262,424-403-4778,https://www.stfrancismedicalcenter.com/find-a-provider/edward-h-kwon-md/
"Samia A.. Khwaja, MD",Nephrology,Internal Medicine,"3621 MLK Blvd. Suite 6Lynwood, CA 90262",,"3621 MLK Blvd. Suite 6Lynwood, CA 90262",Lynwood,CA,90262,323-725-0051,https://www.stfrancismedicalcenter.com/find-a-provider/samia-a-khwaja-md/
"Anastasia E.. Kwon, MD",Anesthesiology,,,,,,,,626-256-6010,https://www.stfrancismedicalcenter.com/find-a-provider/?fbclid=IwAR0Gwi2H4D1uqJTOQnCsPcbGhf8EH8_B7z-ZdbsPr8xsMN-9TbY4E-EoPc4
"Nafiz M.. Kiciman, MD",Pediatric Cardiology,Neonatal-Perinatal Medicine,"1201 W. La Veta AvenueOrange, CA 92868",,"1201 W. La Veta AvenueOrange, CA 92868",Orange,CA,92868,714-509-3939,https://www.stfrancismedicalcenter.com/find-a-provider/nafiz-m-kiciman-md/
"Thomas G.. Kwong, MD",Psychiatry,,"Alliance for Wellness / SoCal Mental Health14860 Roscoe Blvd, Suite 307 Panorama City, CA 91402",Alliance for Wellness / SoCal Mental Health,"14860 Roscoe Blvd, Suite 307 Panorama City, CA 91402",Panorama City,CA,91402,747-998-0387,https://www.stfrancismedicalcenter.com/find-a-provider/thomas-g-kwong-md/
"John C.. Kirby, DO",Radiology - Telemedicine,Radiology - Telemedicine,"PO Box 53803Irvine, CA 92619",,"PO Box 53803Irvine, CA 92619",Irvine,CA,92619,888-662-5321,https://www.stfrancismedicalcenter.com/find-a-provider/john-c-kirby-do/
"Aakash Lad, MD",Diagnostic Radiology,Neuroradiology,"SFMC - Radiology Department3630 E. Imperial Hwy.Lynwood, CA 90262",SFMC - Radiology Department,"3630 E. Imperial Hwy.Lynwood, CA 90262",Lynwood,CA,90262,310-900-2750,https://www.stfrancismedicalcenter.com/find-a-provider/aakash-lad-md/
"Alexander Knezevic, MD",Ophthalmology,,"3737 Martin Luther King J, # 340 Lynwood, CA 90262",,"3737 Martin Luther King J, # 340 Lynwood, CA 90262",Lynwood,CA,90262,310-638-0402,https://www.stfrancismedicalcenter.com/find-a-provider/alexander-knezevic-md/
"Mark C.. Lee, MD",Nephrology,Internal Medicine,"Mark Lee M.D. Inc11147 Washington Blvd.Whittier, CA 90606",Mark Lee M.D. Inc,"11147 Washington Blvd.Whittier, CA 90606",Whittier,CA,90606,562-695-6988,https://www.stfrancismedicalcenter.com/find-a-provider/mark-c-lee-md/
"Wyman W.. Lai, MD",Pediatric Cardiology,Pediatrics,"1201 W La Veta AvenueOrange, CA 92868",,"1201 W La Veta AvenueOrange, CA 92868",Orange,CA,92868,714-509-8406,https://www.stfrancismedicalcenter.com/find-a-provider/wyman-w-lai-md/
"Onechang W.. Lee, MD",Neurological Surgery,,"18035 Brookhurst Street, Ste 1700Fountain Valley, CA 92708",,"18035 Brookhurst Street, Ste 1700Fountain Valley, CA 92708",Fountain Valley,CA,92708,714-433-2000,https://www.stfrancismedicalcenter.com/find-a-provider/onechang-w-lee-md/
"Lesley E.. Lawrenson, MD",Radiation Oncology,,"South Bay Cancer Center14608 Hawthorne Blvd.Lawndale, CA 90260",South Bay Cancer Center,"14608 Hawthorne Blvd.Lawndale, CA 90260",Lawndale,CA,90260,310-978-4970,https://www.stfrancismedicalcenter.com/find-a-provider/lesley-e-lawrenson-md/
"Tyler T.. Leigh, MD",Neurology - Telemedicine,,"Blue Sky Neurology, a Division of CarePoint499 E Hampden Ave, Suite 360Englewood, CO 80113","Blue Sky Neurology, a Division of CarePoint","499 E Hampden Ave, Suite 360Englewood, CO 80113",Englewood,CO,80113,303-781-4485,https://www.stfrancismedicalcenter.com/find-a-provider/tyler-t-leigh-md/
"Milton I.. Lee, MD",Maternal and Fetal Medicine,Obstetrics and Gynecology,"3680 E Imperial Hwy, Ste 460 Lynwood, CA 90262",,"3680 E Imperial Hwy, Ste 460 Lynwood, CA 90262",Lynwood,CA,90262,310-635-5857,https://www.stfrancismedicalcenter.com/find-a-provider/milton-i-lee-md/
"Daniel R.. Lemay, MD",Neurological Surgery,,"8043 2nd St., Suite 105 Downey, CA 90241",,"8043 2nd St., Suite 105 Downey, CA 90241",Downey,CA,90241,562-862-1134,https://www.stfrancismedicalcenter.com/find-a-provider/daniel-r-lemay-md/
"Michelle J.. Lee, PA",Physician Assistant,,"Vituity3630 E. Imperial Hwy., Emergency Department Lynwood, CA 90262",Vituity,"3630 E. Imperial Hwy., Emergency Department Lynwood, CA 90262",Lynwood,CA,90262,310-900-4534,https://www.stfrancismedicalcenter.com/find-a-provider/michelle-j-lee-pa/
"Marcos Lemor, MD",Ophthalmology,,"4036 E. Whittier Blvd., Suite 202 Los Angeles, CA 90023",,"4036 E. Whittier Blvd., Suite 202 Los Angeles, CA 90023",Los Angeles,CA,90023,323-262-3333,https://www.stfrancismedicalcenter.com/find-a-provider/marcos-lemor-md/
"Ben Lee, MD",Diagnostic Radiology,,"Advanced TeleradiologyP.O. Box 53803Irvine, CA 92619",Advanced Teleradiology,"P.O. Box 53803Irvine, CA 92619",Irvine,CA,92619,888-225-0628,https://www.stfrancismedicalcenter.com/find-a-provider/ben-lee-md/
"David L.. Lunsford, CRNA",Certified Registered Nurse Anesthetist,,"P.O. Box 957Redondo Beach, CA 90277",,"P.O. Box 957Redondo Beach, CA 90277",Redondo Beach,CA,90277,310-465-9878,https://www.stfrancismedicalcenter.com/find-a-provider/david-l-lunsford-crna/
"Eileen A.. Liljeblad, MD",Diagnostic Radiology,,"Advanced TeleradiologyP.O. Box 53803Irvine, CA 92619",Advanced Teleradiology,"P.O. Box 53803Irvine, CA 92619",Irvine,CA,92619,888-225-0628,https://www.stfrancismedicalcenter.com/find-a-provider/eileen-a-liljeblad-md/
"Brian M.. Lee, MD",Nephrology,Internal Medicine,"Kidney Specialists Medical Group3625 MLK Jr. Blvd., Suite 5 Lynwood, CA 90262",Kidney Specialists Medical Group,"3625 MLK Jr. Blvd., Suite 5 Lynwood, CA 90262",Lynwood,CA,90262,310-763-7504,https://www.stfrancismedicalcenter.com/find-a-provider/brian-m-lee-md/
"Huy Q.. Ly, MD",Ophthalmology,,"3510 Martin Luther King Jr. BlvLynwood, CA 90262",,"3510 Martin Luther King Jr. BlvLynwood, CA 90262",Lynwood,CA,90262,310-603-8749,https://www.stfrancismedicalcenter.com/find-a-provider/huy-q-ly-md/
"Francisco L.. Lim, RN",Psychiatry,,,,,,,,310-900-8210,https://www.stfrancismedicalcenter.com/find-a-provider/?fbclid=IwAR0Gwi2H4D1uqJTOQnCsPcbGhf8EH8_B7z-ZdbsPr8xsMN-9TbY4E-EoPc4
"Paiboon Mahaisavariya, MD",Cardiovascular Disease,Internal Medicine,"Cardiovascular Medical Associates8317 Davis St., Suite A Downey, CA 90241",Cardiovascular Medical Associates,"8317 Davis St., Suite A Downey, CA 90241",Downey,CA,90241,562-869-1511,https://www.stfrancismedicalcenter.com/find-a-provider/paiboon-mahaisavariya-md/
"Jamie A.. Lipeles, DO",Obstetrics and Gynecology,,"4560 Admiralty Way, Suite 105 Marina Del Rey, CA 90292",,"4560 Admiralty Way, Suite 105 Marina Del Rey, CA 90292",Marina Del Rey,CA,90292,310-694-5255,https://www.stfrancismedicalcenter.com/find-a-provider/jamie-a-lipeles-do/
"Mehboob A.. Makhani, MD",Psychiatry,,"14860 Roscoe Blvd Ste 304Panorama City, CA 91402",,"14860 Roscoe Blvd Ste 304Panorama City, CA 91402",Panorama City,CA,91402,747-998-0387,https://www.stfrancismedicalcenter.com/find-a-provider/mehboob-a-makhani-md/
"Minghsun Liu, MD",Infectious Disease,,"11103 Venice Blvd.Los Angeles, CA 90034",,"11103 Venice Blvd.Los Angeles, CA 90034",Los Angeles,CA,90034,310-734-8526,https://www.stfrancismedicalcenter.com/find-a-provider/minghsun-liu-md/
"Farshad Malekmehr, MD",Thoracic and Cardiac Surgery,,"16311 Ventura Blvd, 1080 Encino, CA 91403",,"16311 Ventura Blvd, 1080 Encino, CA 91403",Encino,CA,91403,818-908-9752,https://www.stfrancismedicalcenter.com/find-a-provider/farshad-malekmehr-md/
"Kyle C.. Lochridge, PA",Physician Assistant,,"Vituity3630 E. Imperial Hwy, Emergency Department Lynwood, CA 90262",Vituity,"3630 E. Imperial Hwy, Emergency Department Lynwood, CA 90262",Lynwood,CA,90262,310-900-4534,https://www.stfrancismedicalcenter.com/find-a-provider/kyle-c-lochridge-pa/
"Nalin Mallik, MD",Critical Care Medicine,Internal Medicine,"PMP Medical Corporation  (Contract - ICU Intensivists)3630 E. Imperial Hwy., Tower Suite 227 Lynwood, CA 90262",PMP Medical Corporation  (Contract - ICU Intensivists),"3630 E. Imperial Hwy., Tower Suite 227 Lynwood, CA 90262",Lynwood,CA,90262,310-900-8090,https://www.stfrancismedicalcenter.com/find-a-provider/nalin-mallik-md/
"Bryan E.. Love, MD",Surgical Critical Care,General Surgery,"Desert Trauma Surgeons3628 E. Imperial Hwy, Suite 408Lynwood, CA 90262",Desert Trauma Surgeons,"3628 E. Imperial Hwy, Suite 408Lynwood, CA 90262",Lynwood,CA,90262,310-554-4127,https://www.stfrancismedicalcenter.com/find-a-provider/bryan-e-love-md/
"Anthony C.. McCanta, MD",Pediatric Cardiology,,"1201 W La Veta AveOrange, CA 92868",,"1201 W La Veta AveOrange, CA 92868",Orange,CA,92868,714-509-3939,https://www.stfrancismedicalcenter.com/find-a-provider/anthony-c-mccanta-md/
"Concepcion Mangasep, MD",Psychiatry,,"College Mecical Center2776 Pacific Avenue, Psychiatry Department Long Beach, CA 90806",College Mecical Center,"2776 Pacific Avenue, Psychiatry Department Long Beach, CA 90806",Long Beach,CA,90806,562-997-2000,https://www.stfrancismedicalcenter.com/find-a-provider/concepcion-mangasep-md/
"Stephen Lui, MD",Nephrology,Internal Medicine,"3625 MLK Jr. Blvd., Suite 5 Lynwood, CA 90262",,"3625 MLK Jr. Blvd., Suite 5 Lynwood, CA 90262",Lynwood,CA,90262,310-763-7504,https://www.stfrancismedicalcenter.com/find-a-provider/stephen-lui-md/
"Danny C.. McCarthy, DO",Radiology - Telemedicine,,"Advanced TeleradiologyP.O. Box 53803Irvine, CA 92619",Advanced Teleradiology,"P.O. Box 53803Irvine, CA 92619",Irvine,CA,92619,888-225-0628,https://www.stfrancismedicalcenter.com/find-a-provider/danny-c-mccarthy-do/
"Christopher J.. Marrocco, MD",Vascular Surgery,General Surgery,"3680 E. Imperial Hwy., Suite 502 Lynwood, CA 90262",,"3680 E. Imperial Hwy., Suite 502 Lynwood, CA 90262",Lynwood,CA,90262,562-698-0271,https://www.stfrancismedicalcenter.com/find-a-provider/christopher-j-marrocco-md/
"Emmanuel L.. McCarthy, PT",Psychiatry,,,,,,,,310-900-8210,https://www.stfrancismedicalcenter.com/find-a-provider/?fbclid=IwAR0Gwi2H4D1uqJTOQnCsPcbGhf8EH8_B7z-ZdbsPr8xsMN-9TbY4E-EoPc4
"Claudia V.. Martinez, MD",Emergency Medicine,,"Vituity3630 E. Imperial Hwy., Emergency Department Lynwood, CA 90262",Vituity,"3630 E. Imperial Hwy., Emergency Department Lynwood, CA 90262",Lynwood,CA,90262,310-900-4534,https://www.stfrancismedicalcenter.com/find-a-provider/claudia-v-martinez-md/
"Holly M.. McCune, MD",Radiology - Telemedicine,,"Advanced TeleradiologyP.O. Box 53803Irvine, CA 92619",Advanced Teleradiology,"P.O. Box 53803Irvine, CA 92619",Irvine,CA,92619,888-225-0628,https://www.stfrancismedicalcenter.com/find-a-provider/holly-m-mccune-md/
"Marsha L.. Martinson, MD",Obstetrics and Gynecology,,"All Safe Medical Group8077 Florence Ave., Suite 112 Downey, CA 90240",All Safe Medical Group,"8077 Florence Ave., Suite 112 Downey, CA 90240",Downey,CA,90240,562-904-6031,https://www.stfrancismedicalcenter.com/find-a-provider/marsha-l-martinson-md/
"Ricardo E.. McKenzie, MD",Internal Medicine,,", Suite 470 , CA ",,", Suite 470 , CA ",,CA,,310-705-8318,https://www.stfrancismedicalcenter.com/find-a-provider/ricardo-e-mckenzie-md/
"Dorsa F.. Maryska, MD",Nephrology,Internal Medicine,"Dorsa Nasseri Maryska MD Inc101 Beverly Blvd., Suite 304 Montebello, CA 90640",Dorsa Nasseri Maryska MD Inc,"101 Beverly Blvd., Suite 304 Montebello, CA 90640",Montebello,CA,90640,323-722-7418,https://www.stfrancismedicalcenter.com/find-a-provider/dorsa-f-maryska-md/
"Michael K.. McLean, MD",Thoracic and Cardiac Surgery,General Surgery,"711 W. College St, Suite 560 Los Angeles, CA 90057",,"711 W. College St, Suite 560 Los Angeles, CA 90057",Los Angeles,CA,90057,213-628-3592,https://www.stfrancismedicalcenter.com/find-a-provider/michael-k-mclean-md/
"K.N. S.. Mbagwu, MD",Obstetrics and Gynecology,,"1218 S. Inglewood Ave.Inglewood, CA 90301",,"1218 S. Inglewood Ave.Inglewood, CA 90301",Inglewood,CA,90301,310-672-4881,https://www.stfrancismedicalcenter.com/find-a-provider/k-n-s-mbagwu-md/
"Muhammad Memon, MD",Internal Medicine,,"555 W. Compton Blvd., Suite 104 Compton, CA 90220",,"555 W. Compton Blvd., Suite 104 Compton, CA 90220",Compton,CA,90220,310-639-7200,https://www.stfrancismedicalcenter.com/find-a-provider/muhammad-memon-md/
"Katharine G.. McManus, PA",Physician Assistant,,"Vituity3630 E. Imperial Hwy., Emergency Department Lynwood, CA 90262",Vituity,"3630 E. Imperial Hwy., Emergency Department Lynwood, CA 90262",Lynwood,CA,90262,310-900-4534,https://www.stfrancismedicalcenter.com/find-a-provider/katharine-g-mcmanus-pa/
"Andrew W.. Michael, MD",Surgical Critical Care,General Surgery,"3737 Martin Luther King Jr., Blvd., Suite 301 Lynwood, CA 90262",,"3737 Martin Luther King Jr., Blvd., Suite 301 Lynwood, CA 90262",Lynwood,CA,90262,424-403-4778,https://www.stfrancismedicalcenter.com/find-a-provider/andrew-w-michael-md/
"Ryan T.. McNally, MD",Emergency Medicine,,"Vituity3630 E. Imperial Hwy., Emergency Department Lynwood, CA 90262",Vituity,"3630 E. Imperial Hwy., Emergency Department Lynwood, CA 90262",Lynwood,CA,90262,310-900-4534,https://www.stfrancismedicalcenter.com/find-a-provider/ryan-t-mcnally-md/
"Saad A.. Mir, MD",Neurology - Telemedicine,,"Blue Sky Neurology, a Division of CarePoint499 E Hampden Ave, Suite 360Englewood, CO 80113","Blue Sky Neurology, a Division of CarePoint","499 E Hampden Ave, Suite 360Englewood, CO 80113",Englewood,CO,80113,303-781-4485,https://www.stfrancismedicalcenter.com/find-a-provider/saad-a-mir-md/
"Joseph McQuirter, DDS",Oral and Maxillofacial Surgery,,"Joseph McQuirter DDS Inc2690 Pacific Ave, Suite 250 Long Beach, CA 90806",Joseph McQuirter DDS Inc,"2690 Pacific Ave, Suite 250 Long Beach, CA 90806",Long Beach,CA,90806,855-413-5009,https://www.stfrancismedicalcenter.com/find-a-provider/joseph-mcquirter-dds/
"Devadatt M.. Mishal, MD",Obstetrics and Gynecology,,"8500 Florence Ave., Suite 200 Downey, CA 90240",,"8500 Florence Ave., Suite 200 Downey, CA 90240",Downey,CA,90240,562-869-4579,https://www.stfrancismedicalcenter.com/find-a-provider/devadatt-m-mishal-md/
"Mario A.. Meallet, MD",Ophthalmology,,"3849 Tweedy Blvd.Southgate, CA 90280",,"3849 Tweedy Blvd.Southgate, CA 90280",Southgate,CA,90280,323-567-4956,https://www.stfrancismedicalcenter.com/find-a-provider/mario-a-meallet-md/
"Antoine Mitri, MD",Neurology,Internal Medicine,"Prentice, Mitri and Hijazin Neurological Assoc10916 Downey Ave.Downey, CA 90241","Prentice, Mitri and Hijazin Neurological Assoc","10916 Downey Ave.Downey, CA 90241",Downey,CA,90241,562-861-1988,https://www.stfrancismedicalcenter.com/find-a-provider/antoine-mitri-md/
"Akshay M.. Mehta, MD",Orthopaedic Surgery,,"St. Francis Orthopaedic Clinic3628 E. Imperial Highway, Suite 300 Lynwood, CA 90262",St. Francis Orthopaedic Clinic,"3628 E. Imperial Highway, Suite 300 Lynwood, CA 90262",Lynwood,CA,90262,800-627-0114,https://www.stfrancismedicalcenter.com/find-a-provider/akshay-m-mehta-md/
"Raj A.. Mittal, MD",General Surgery,Transplant Surgery,"3400 West Lomita Blvd, Suite 200 Torrance, CA 90505",,"3400 West Lomita Blvd, Suite 200 Torrance, CA 90505",Torrance,CA,90505,310-539-2630,https://www.stfrancismedicalcenter.com/find-a-provider/raj-a-mittal-md/
"Manish D.. Mehta, MD",Urology,,"3628 E. Imperial Hwy., Suite 201 Lynwood, CA 90262",,"3628 E. Imperial Hwy., Suite 201 Lynwood, CA 90262",Lynwood,CA,90262,310-639-4876,https://www.stfrancismedicalcenter.com/find-a-provider/manish-d-mehta-md/
"Dean V.. Moesch, MD",Radiology - Telemedicine,,"Advanced TeleRadiologyP.O. Box 53803Irvine, CA 92603",Advanced TeleRadiology,"P.O. Box 53803Irvine, CA 92603",Irvine,CA,92603,888-225-0628,https://www.stfrancismedicalcenter.com/find-a-provider/dean-v-moesch-md/
"Amod S.. Moosa, MD",Neonatal-Perinatal Medicine,Pediatrics,"5057 Los Feliz Blvd.Los Angeles, CA 90027",,"5057 Los Feliz Blvd.Los Angeles, CA 90027",Los Angeles,CA,90027,310-435-1400,https://www.stfrancismedicalcenter.com/find-a-provider/amod-s-moosa-md/
"Hamid R.. Mohazab, DO",Diagnostic Radiology,Neuroradiology,"St. Francis Radiology3630 E Imperial Hwy, Department of Radiology Lynwood, CA 90262",St. Francis Radiology,"3630 E Imperial Hwy, Department of Radiology Lynwood, CA 90262",Lynwood,CA,90262,310-900-2750,https://www.stfrancismedicalcenter.com/find-a-provider/hamid-r-mohazab-do/
"Gloria M.. Morales, MD",Neonatal-Perinatal Medicine,Pediatrics,"12401 Washington BlvdWhittier, CA 90602",,"12401 Washington BlvdWhittier, CA 90602",Whittier,CA,90602,562-698-0811 x17529,https://www.stfrancismedicalcenter.com/find-a-provider/gloria-m-morales-md/
"Shafagh M.. Monazzam, MD",Orthopaedic Surgery,,,,,,,,323-767-8827,https://www.stfrancismedicalcenter.com/find-a-provider/?fbclid=IwAR0Gwi2H4D1uqJTOQnCsPcbGhf8EH8_B7z-ZdbsPr8xsMN-9TbY4E-EoPc4
"Wilson A.. Morales, MD",Obstetrics and Gynecology,,"Tender Care Community Clinic,Inc, Suite 309 Downey, CA 90241",,"Tender Care Community Clinic,Inc, Suite 309 Downey, CA 90241",Downey,CA,90241,562-869-7007,https://www.stfrancismedicalcenter.com/find-a-provider/wilson-a-morales-md/
"Benjamin F.. Monroe, MD",Obstetrics and Gynecology,,"3628 E Imperial Hwy, Suite 200 Lynwood, CA 90262",,"3628 E Imperial Hwy, Suite 200 Lynwood, CA 90262",Lynwood,CA,90262,310-605-0048,https://www.stfrancismedicalcenter.com/find-a-provider/benjamin-f-monroe-md/
"Gira S.. Morchi, MD",Pediatric Cardiology,Pediatrics,"CHOC Pediatric Subspecialty Faculty1201 W. La Veta AvenueOrange, CA ",CHOC Pediatric Subspecialty Faculty,"1201 W. La Veta AvenueOrange, CA ",Orange,CA,,714-509-3939,https://www.stfrancismedicalcenter.com/find-a-provider/gira-s-morchi-md/
"Ramin Monshizadeh, MD",Ophthalmology,,"8577 Haven Ave., Suite 208 Rancho Cucamong, CA 91730",,"8577 Haven Ave., Suite 208 Rancho Cucamong, CA 91730",Rancho Cucamong,CA,91730,909-944-5353,https://www.stfrancismedicalcenter.com/find-a-provider/ramin-monshizadeh-md/
"Vilasinee Morkjaroenpong, MD",Pulmonary Medicine,Internal Medicine,"Pulmonary Consultants & Wellness Center,, 555 East Hardy Street INGLEWOOD, CA 90301",,"Pulmonary Consultants & Wellness Center,, 555 East Hardy Street INGLEWOOD, CA 90301",INGLEWOOD,CA,90301,310-680-8095,https://www.stfrancismedicalcenter.com/find-a-provider/vilasinee-morkjaroenpong-md/
"Martha I.. Montealegre, NP",Nurse Practitioner,,"101 E. Beverly Blvd. Suite 304Montebello, CA 90640",,"101 E. Beverly Blvd. Suite 304Montebello, CA 90640",Montebello,CA,90640,323-722-7418,https://www.stfrancismedicalcenter.com/find-a-provider/martha-i-montealegre-np/
"Emily P.. Ng, MD",Psychiatry,,"Alliance for Wellness / SoCal Mental Health14860 Roscoe Blvd, Suite 307 Panorama City, CA 91402",Alliance for Wellness / SoCal Mental Health,"14860 Roscoe Blvd, Suite 307 Panorama City, CA 91402",Panorama City,CA,91402,747-998-0387,https://www.stfrancismedicalcenter.com/find-a-provider/emily-p-ng-md/
"Lewis K.. Moss, MD",Orthopaedic Surgery,,"3628 E. Imperial Hwy., Suite 300 Lynwood, CA 90262",,"3628 E. Imperial Hwy., Suite 300 Lynwood, CA 90262",Lynwood,CA,90262,310-900-4788,https://www.stfrancismedicalcenter.com/find-a-provider/lewis-k-moss-md/
"Hung Q.. Nguyen, MD",Internal Medicine,,"Applecare11525 Brookshire Ave, Ste 300 Downey, CA 90241",Applecare,"11525 Brookshire Ave, Ste 300 Downey, CA 90241",Downey,CA,90241,562-869-1070,https://www.stfrancismedicalcenter.com/find-a-provider/hung-q-nguyen-md/
"James P.. Murphy, NP",Nurse Practitioner,,"4955 Van Nuys Blvd Suite 308Sherman Oaks, CA 91403",,"4955 Van Nuys Blvd Suite 308Sherman Oaks, CA 91403",Sherman Oaks,CA,91403,213-279-1220,https://www.stfrancismedicalcenter.com/find-a-provider/james-p-murphy-np/
"Thuan P.. Nguyen, DO",Internal Medicine,,"Epic Medical Group4955 Van Nuys Blvd, Ste 308 Sherman Oaks, CA 91403",Epic Medical Group,"4955 Van Nuys Blvd, Ste 308 Sherman Oaks, CA 91403",Sherman Oaks,CA,91403,213-279-1220,https://www.stfrancismedicalcenter.com/find-a-provider/thuan-p-nguyen-do/
"Than Naing, MD",Anesthesiology,,"SFMC - Anesthesia Dept3630 E Imperial HwyLynwood, CA 90262",SFMC - Anesthesia Dept,"3630 E Imperial HwyLynwood, CA 90262",Lynwood,CA,90262,310-900-2727,https://www.stfrancismedicalcenter.com/find-a-provider/than-naing-md/
"Khai T.. Nguyen, MD",Psychiatry - Telemedicine,Child and Adolescent Psychiatry,"SOC Telemed2411 Dulles Corner Park, Suite 475Herndon, VA 20171",SOC Telemed,"2411 Dulles Corner Park, Suite 475Herndon, VA 20171",Herndon,VA,20171,866-483-9690,https://www.stfrancismedicalcenter.com/find-a-provider/khai-t-nguyen-md/
"Hares Najand, MD",Emergency Medicine,,"Vituity3630 E. Imperial Hwy., Emergency Department Lynwood, CA 90262",Vituity,"3630 E. Imperial Hwy., Emergency Department Lynwood, CA 90262",Lynwood,CA,90262,310-900-4534,https://www.stfrancismedicalcenter.com/find-a-provider/hares-najand-md/
"Vincent V.. Nguyen, PA",Physician Assistant,,"Vituity3630 E. Imperial Hwy.Lynwood, CA 90262",Vituity,"3630 E. Imperial Hwy.Lynwood, CA 90262",Lynwood,CA,90262,310-900-4534,https://www.stfrancismedicalcenter.com/find-a-provider/vincent-v-nguyen-pa/
"Soheil Najibi, MD",Orthopaedic Surgery,,"2950 W. Burbank Blvd.Burbank, CA 91505",,"2950 W. Burbank Blvd.Burbank, CA 91505",Burbank,CA,91505,818-842-4404,https://www.stfrancismedicalcenter.com/find-a-provider/soheil-najibi-md/
"Huitzilin M.. Olmecah, MD",Neurology,Critical Care Medicine,"11339 South 700 East, Suite 200Sandy, UT 84070",,"11339 South 700 East, Suite 200Sandy, UT 84070",Sandy,UT,84070,949-466-8252,https://www.stfrancismedicalcenter.com/find-a-provider/huitzilin-m-olmecah-md/
"Yona N.. Nicolau, MD",Neonatal-Perinatal Medicine,Pediatrics,"333 City Blvd, Ste 850 Orange, CA 92868",,"333 City Blvd, Ste 850 Orange, CA 92868",Orange,CA,92868,714-456-6933,https://www.stfrancismedicalcenter.com/find-a-provider/yona-n-nicolau-md/
"Fadi E.. Nakhl, MD",Hematology/Oncology,,"3628 Imperial Hwy, 401 Lynwood, CA 90262",,"3628 Imperial Hwy, 401 Lynwood, CA 90262",Lynwood,CA,90262,310-667-4000,https://www.stfrancismedicalcenter.com/find-a-provider/fadi-e-nakhl-md/
"Michael S.. Olsen, MD",Emergency Medicine,,"Vituity3630 E. Imperial Hwy., Emergency Department Lynwood, CA 90262",Vituity,"3630 E. Imperial Hwy., Emergency Department Lynwood, CA 90262",Lynwood,CA,90262,310-900-4534,https://www.stfrancismedicalcenter.com/find-a-provider/michael-s-olsen-md/
"Zachary I.. Norman, MD",Neurology - Telemedicine,,"Blue Sky Neurology (a Division of Care Point)5600 S. Quebec St., Ste 312 A Greenwood Village, CO 80111",Blue Sky Neurology (a Division of Care Point),"5600 S. Quebec St., Ste 312 A Greenwood Village, CO 80111",Greenwood Village,CO,80111,303-436-2716,https://www.stfrancismedicalcenter.com/find-a-provider/zachary-i-norman-md/
"Krystal Neely, MD",Pediatrics,,"403 S. Long Beach Blvd., Suite B Compton, CA 90221",,"403 S. Long Beach Blvd., Suite B Compton, CA 90221",Compton,CA,90221,310-635-0746,https://www.stfrancismedicalcenter.com/find-a-provider/krystal-neely-md/
"Bassam O.. Omari, MD",Cardiothoracic Vascular Surgery,General Surgery,"Harbor UCLA Medical Center1000 W. Carson St.Torrance, CA 90509",Harbor UCLA Medical Center,"1000 W. Carson St.Torrance, CA 90509",Torrance,CA,90509,310-710-4648,https://www.stfrancismedicalcenter.com/find-a-provider/bassam-o-omari-md/
"Lizbhet Nunez, CRNA",Certified Registered Nurse Anesthetist,,"P.O. Box 5496Long Beach, CA 90805",,"P.O. Box 5496Long Beach, CA 90805",Long Beach,CA,90805,562-619-4039,https://www.stfrancismedicalcenter.com/find-a-provider/lizbhet-nunez-crna/
"William N.. Paik, MD",Radiology - Telemedicine,,"Advanced TeleradiologyAdvanced TeleRadiology, P. o. Box 53803 Irvine, CA 92619",Advanced Teleradiology,"Advanced TeleRadiology, P. o. Box 53803 Irvine, CA 92619",Irvine,CA,92619,888-225-0628,https://www.stfrancismedicalcenter.com/find-a-provider/william-n-paik-md/
"Michael J.. O'Brien, PA",Physician Assistant,,"Vituity3630 E. Imperial Hwy., Emergency Department Lynwood, CA 90262",Vituity,"3630 E. Imperial Hwy., Emergency Department Lynwood, CA 90262",Lynwood,CA,90262,310-900-4534,https://www.stfrancismedicalcenter.com/find-a-provider/michael-j-obrien-pa/
"Peter S.. Pak, MD",Surgical Critical Care,General Surgery,"3737 Martin Luther King Jr. Blvd., Suite 301 Lynwood, CA 90262",,"3737 Martin Luther King Jr. Blvd., Suite 301 Lynwood, CA 90262",Lynwood,CA,90262,424-403-4778,https://www.stfrancismedicalcenter.com/find-a-provider/peter-s-pak-md/
"Chukwudi C.. Obue, NP",Psychiatry,,"Alliance for Wellness / SoCal Mental Health14860 Roscoe Blvd, Suite 307 Panorama City, CA 91402",Alliance for Wellness / SoCal Mental Health,"14860 Roscoe Blvd, Suite 307 Panorama City, CA 91402",Panorama City,CA,91402,747-998-0387,https://www.stfrancismedicalcenter.com/find-a-provider/chukwudi-c-obue-np/
"Patrick J.. Pan, MD",Diagnostic Radiology,,"SFMC - Radiology Dept3630 E. Imperial Hwy.Lynwood, CA 90262",SFMC - Radiology Dept,"3630 E. Imperial Hwy.Lynwood, CA 90262",Lynwood,CA,90262,310-900-2750,https://www.stfrancismedicalcenter.com/find-a-provider/patrick-j-pan-md/
"Anthony O.. Ogundipe, MD",Maternal and Fetal Medicine,Obstetrics and Gynecology,"Maternal Fetal Medicine Associates3628 E. Imperial Hwy., Suite 200 Lynwood, CA 90262",Maternal Fetal Medicine Associates,"3628 E. Imperial Hwy., Suite 200 Lynwood, CA 90262",Lynwood,CA,90262,310-603-2345,https://www.stfrancismedicalcenter.com/find-a-provider/anthony-o-ogundipe-md/
"Hemant Pande, MD",Gastroenterology,Internal Medicine,"Gastro-Digestive Medical Group3621 MLK Jr. Blvd., Suite 5 Lynwood, CA 90262",Gastro-Digestive Medical Group,"3621 MLK Jr. Blvd., Suite 5 Lynwood, CA 90262",Lynwood,CA,90262,310-632-0906,https://www.stfrancismedicalcenter.com/find-a-provider/hemant-pande-md/
"Sushil K.. Ojha, MD",Gastroenterology,Internal Medicine,"Gastro-Digestive Medical Group3621 MLK Jr. Blvd., Suite 5 Lynwood, CA 90262",Gastro-Digestive Medical Group,"3621 MLK Jr. Blvd., Suite 5 Lynwood, CA 90262",Lynwood,CA,90262,310-632-0906,https://www.stfrancismedicalcenter.com/find-a-provider/sushil-k-ojha-md/
"Neal K.. Patel, DPM",Podiatric Surgery,Wound Care,"250 N Robertson Blvd Suite 106Beverly Hills, CA 90211",,"250 N Robertson Blvd Suite 106Beverly Hills, CA 90211",Beverly Hills,CA,90211,310-919-4179,https://www.stfrancismedicalcenter.com/find-a-provider/neal-k-patel-dpm/
"Ravikanth Papani, MD",Pulmonary Medicine,Internal Medicine,"Pulmonary Consultants and Wellness Center, Inc.8540 South Sepulveda Blvd, Suite 1010 Los Angeles, CA 90045","Pulmonary Consultants and Wellness Center, Inc.","8540 South Sepulveda Blvd, Suite 1010 Los Angeles, CA 90045",Los Angeles,CA,90045,310-295-0075,https://www.stfrancismedicalcenter.com/find-a-provider/ravikanth-papani-md/
"Devesh N.. Patel, MD",Infectious Disease,,,,,,,,626-859-4167,https://www.stfrancismedicalcenter.com/find-a-provider/?fbclid=IwAR0Gwi2H4D1uqJTOQnCsPcbGhf8EH8_B7z-ZdbsPr8xsMN-9TbY4E-EoPc4
"Potenciano R.. Paredes, MD",Pediatrics,,"15901 Hawthorne Blvd, Suite 250 Hawthorne, CA 90260",,"15901 Hawthorne Blvd, Suite 250 Hawthorne, CA 90260",Hawthorne,CA,90260,310-679-0269,https://www.stfrancismedicalcenter.com/find-a-provider/potenciano-r-paredes-md/
"Baminihannadige N.. Peiris, MD",Internal Medicine,,"8510 Balboa Blvd., Suite 150 Northridge, CA 91325",,"8510 Balboa Blvd., Suite 150 Northridge, CA 91325",Northridge,CA,91325,818-552-6230,https://www.stfrancismedicalcenter.com/find-a-provider/baminihannadige-n-peiris-md/
"Paryus B.. Patel, MD",Critical Care Medicine,,"Pulmonary Consultants and Wellness Center, Inc.8540 South Sepulveda Blvd, Suite 1010 Los Angeles, CA 90045","Pulmonary Consultants and Wellness Center, Inc.","8540 South Sepulveda Blvd, Suite 1010 Los Angeles, CA 90045",Los Angeles,CA,90045,310-295-0075,https://www.stfrancismedicalcenter.com/find-a-provider/paryus-b-patel-md/
"Arturo Pelayo, MD",Emergency Medicine,,"Vituity3630 E. Imperial Hwy., Emergency Department Lynwood, CA 90262",Vituity,"3630 E. Imperial Hwy., Emergency Department Lynwood, CA 90262",Lynwood,CA,90262,310-900-4534,https://www.stfrancismedicalcenter.com/find-a-provider/arturo-pelayo-md/
"Sapna S.. Patel, MD",Nephrology,Internal Medicine,"ProHealth Partners A Medical Group, Inc2888 Long Beach Blvd., Suite 235 Long Beach, CA 90806","ProHealth Partners A Medical Group, Inc","2888 Long Beach Blvd., Suite 235 Long Beach, CA 90806",Long Beach,CA,90806,562-424-4447,https://www.stfrancismedicalcenter.com/find-a-provider/sapna-s-patel-md/
"William Perkins, MD",Pediatric Critical Care Medicine,,"17100 Euclid St., PICU Fountain Valley, CA 92708",,"17100 Euclid St., PICU Fountain Valley, CA 92708",Fountain Valley,CA,92708,714-966-7253,https://www.stfrancismedicalcenter.com/find-a-provider/william-perkins-md/
"Devang J.. Patel, MD",Neonatal-Perinatal Medicine,Pediatrics,"1201 W. La Veta AveOrange, CA 92868",,"1201 W. La Veta AveOrange, CA 92868",Orange,CA,92868,714-509-3096,https://www.stfrancismedicalcenter.com/find-a-provider/devang-j-patel-md/
"Raj Prasad, MD",Internal Medicine,,"Raj Prasad M.D. Inc.8711 Venice BlvdLos Angeles, CA 90034",Raj Prasad M.D. Inc.,"8711 Venice BlvdLos Angeles, CA 90034",Los Angeles,CA,90034,310-237-0023,https://www.stfrancismedicalcenter.com/find-a-provider/raj-prasad-md/
"Loy A.. Pham, MD",Obstetrics and Gynecology,,"8500 Florence Ave., Suite 200 Downey, CA 90240",,"8500 Florence Ave., Suite 200 Downey, CA 90240",Downey,CA,90240,562-869-4579,https://www.stfrancismedicalcenter.com/find-a-provider/loy-a-pham-md/
"Ashley C.. Proal, NP",Internal Medicine,,"Epic Medical Group4955 Van Nuys Blvd, Ste 308 Sherman Oaks, CA 91403",Epic Medical Group,"4955 Van Nuys Blvd, Ste 308 Sherman Oaks, CA 91403",Sherman Oaks,CA,91403,213-279-1220,https://www.stfrancismedicalcenter.com/find-a-provider/ashley-c-proal-np/
"Peter P.. Piampiano, MD",Diagnostic Radiology,,"Advanced TeleRadiologyP.O. Box 53803Irvine, CA 92603",Advanced TeleRadiology,"P.O. Box 53803Irvine, CA 92603",Irvine,CA,92603,888-225-0628,https://www.stfrancismedicalcenter.com/find-a-provider/peter-p-piampiano-md/
"Jonathan A.. Pryor, MD",Surgical Critical Care,General Surgery,"11200 Long Beach Blvd., Suite 614 Lynwood, CA 90262",,"11200 Long Beach Blvd., Suite 614 Lynwood, CA 90262",Lynwood,CA,90262,562-981-6933,https://www.stfrancismedicalcenter.com/find-a-provider/jonathan-a-pryor-md/
"John L.. Pinches, DO",Obstetrics and Gynecology,,"Los Alamitos OB/GYN Medical Group, Inc.8615 Knott Ave., Ste. #5Buena Park, CA 90620","Los Alamitos OB/GYN Medical Group, Inc.","8615 Knott Ave., Ste. #5Buena Park, CA 90620",Buena Park,CA,90620,562-596-5566,https://www.stfrancismedicalcenter.com/find-a-provider/john-l-pinches-do/
"Ahmad A.. Qamar, MD",Internal Medicine,,"Epic Medical Group4955 Van Nuys Blvd, Ste 308 Sherman Oaks, CA 91403",Epic Medical Group,"4955 Van Nuys Blvd, Ste 308 Sherman Oaks, CA 91403",Sherman Oaks,CA,91403,657-276-7080,https://www.stfrancismedicalcenter.com/find-a-provider/ahmad-a-qamar-md/
"Li Poa, MD",Thoracic and Cardiac Surgery,,"501 E Hardy Street, Suite 315 Inglewood, CA 90301",,"501 E Hardy Street, Suite 315 Inglewood, CA 90301",Inglewood,CA,90301,310-419-8610,https://www.stfrancismedicalcenter.com/find-a-provider/li-poa-md/
"Maria Nina N.. Quimpo, NP",Infectious Disease,Internal Medicine,"12041 Bertha Street, Los Angeles Cerritos, CA 90703",,"12041 Bertha Street, Los Angeles Cerritos, CA 90703",Cerritos,CA,90703,562-569-2008,https://www.stfrancismedicalcenter.com/find-a-provider/maria-nina-n-quimpo-np/
"Donald J.. Portocarrero, DO",Gastroenterology,Internal Medicine,"Fernando Ibarra MD Inc850 S. Atlantic Blvd., Suite 101 Monterey Park, CA 91754",Fernando Ibarra MD Inc,"850 S. Atlantic Blvd., Suite 101 Monterey Park, CA 91754",Monterey Park,CA,91754,626-284-1350,https://www.stfrancismedicalcenter.com/find-a-provider/donald-j-portocarrero-do/
"Reynaldo Quinonez, PA",Physician Assistant,,"4207 Slauson AveMaywood, CA 90270",,"4207 Slauson AveMaywood, CA 90270",Maywood,CA,90270,323-560-1100,https://www.stfrancismedicalcenter.com/find-a-provider/reynaldo-quinonez-pa/
"David A.. Pougatsch, DPM",Podiatrist,Wound Care,"250 N. Robertson Blvd., Suite 106 Beverly Hills, CA 90211",,"250 N. Robertson Blvd., Suite 106 Beverly Hills, CA 90211",Beverly Hills,CA,90211,310-919-4179,https://www.stfrancismedicalcenter.com/find-a-provider/david-a-pougatsch-dpm/
"Collin B.. Radcliffe, CRNA",Certified Registered Nurse Anesthetist,,"21060 pacific city cir unit 612Huntington Beach, CA ",,"21060 pacific city cir unit 612Huntington Beach, CA ",Huntington Beach,CA,,407-496-7773,https://www.stfrancismedicalcenter.com/find-a-provider/collin-b-radcliffe-crna/
"Shahin Pourrabbani, MD",Vascular Surgery,General Surgery,"3680 E. Imperial Hwy., Suite 502 Lynwood, CA 90262",,"3680 E. Imperial Hwy., Suite 502 Lynwood, CA 90262",Lynwood,CA,90262,562-698-0271,https://www.stfrancismedicalcenter.com/find-a-provider/shahin-pourrabbani-md/
"Sridhar M.. Reddy, MD",Interventional Cardiology,,"Epic Medical Group4955 Van Nuys Blvd, Ste 308 Sherman Oaks, CA 91403",Epic Medical Group,"4955 Van Nuys Blvd, Ste 308 Sherman Oaks, CA 91403",Sherman Oaks,CA,91403,213-279-1220,https://www.stfrancismedicalcenter.com/find-a-provider/sridhar-m-reddy-md/
"Masoud Rahban, MD",Infectious Disease,Internal Medicine,"5901 W. Olympic Blvd # 307Los Angeles, CA 90036",,"5901 W. Olympic Blvd # 307Los Angeles, CA 90036",Los Angeles,CA,90036,323-549-0950,https://www.stfrancismedicalcenter.com/find-a-provider/masoud-rahban-md/
"Sandeep K.. Reddy, MD",Hematology/Oncology,Internal Medicine,"9920 Jefferson Blvd.Culver City, CA 90232",,"9920 Jefferson Blvd.Culver City, CA 90232",Culver City,CA,90232,310-853-7631,https://www.stfrancismedicalcenter.com/find-a-provider/sandeep-k-reddy-md/
"Desiree M.. Ramirez, NP",Nurse Practitioner,,"Vituity3630 E. Imperial Hwy., Emergency Department Lynwood, CA 90262",Vituity,"3630 E. Imperial Hwy., Emergency Department Lynwood, CA 90262",Lynwood,CA,90262,310-900-4534,https://www.stfrancismedicalcenter.com/find-a-provider/desiree-m-ramirez-np/
"Pierangelo Renella, MD",Pediatric Cardiology,Pediatrics,"Pediatric Subspecialty Faculty, Inc.1201 W. La Veta AvenueOrange, CA 92868","Pediatric Subspecialty Faculty, Inc.","1201 W. La Veta AvenueOrange, CA 92868",Orange,CA,92868,714-509-3939,https://www.stfrancismedicalcenter.com/find-a-provider/pierangelo-renella-md/
"Lina T.. Ramos, MD",,,"Specialists On Call, Inc. (SOC for Prime Healthcare)1768 Business Center Dr., Ste. 100Reston, VA 20190","Specialists On Call, Inc. (SOC for Prime Healthcare)","1768 Business Center Dr., Ste. 100Reston, VA 20190",Reston,VA,20190,866-483-9690,https://www.stfrancismedicalcenter.com/find-a-provider/lina-t-ramos-md/
"Hilda L.. Riderer, DO",Internal Medicine,,"Epic Medical Group4955 Van Nuys Blvd, Ste 308 Sherman Oaks, CA 91403",Epic Medical Group,"4955 Van Nuys Blvd, Ste 308 Sherman Oaks, CA 91403",Sherman Oaks,CA,91403,818-817-3285,https://www.stfrancismedicalcenter.com/find-a-provider/hilda-l-riderer-do/
"David F.. Razi, MD",Internal Medicine,Pediatrics,"3451 W. Century Blvd.Inglewood, CA 90303",,"3451 W. Century Blvd.Inglewood, CA 90303",Inglewood,CA,90303,310-270-5450,https://www.stfrancismedicalcenter.com/find-a-provider/david-f-razi-md/
"Jose L.. Rivas, MD",Thoracic and Cardiac Surgery,General Surgery,"3100 E. Florence Ave., Suite 7 Huntington Park, CA 90255",,"3100 E. Florence Ave., Suite 7 Huntington Park, CA 90255",Huntington Park,CA,90255,323-583-6361,https://www.stfrancismedicalcenter.com/find-a-provider/jose-l-rivas-md/
"Michael R.. Recto, MD",Pediatric Cardiology,Pediatrics,"1201 W. La Veta AvenueOrange, CA ",,"1201 W. La Veta AvenueOrange, CA ",Orange,CA,,714-509-3939,https://www.stfrancismedicalcenter.com/find-a-provider/michael-r-recto-md/
"Saloomeh Saati, MD",Ophthalmology,,"3737 MLK Jr. Blvd., Suite 340 Lynwood, CA 90262",,"3737 MLK Jr. Blvd., Suite 340 Lynwood, CA 90262",Lynwood,CA,90262,310-638-0402,https://www.stfrancismedicalcenter.com/find-a-provider/saloomeh-saati-md/
"Ayaka K.. Robbins, MFT",Psychiatry,,"PET Team3630 E. Imperial Highway, Behavioral Health Department Lynwood, CA 90262",PET Team,"3630 E. Imperial Highway, Behavioral Health Department Lynwood, CA 90262",Lynwood,CA,90262,310-900-8210,https://www.stfrancismedicalcenter.com/find-a-provider/ayaka-k-robbins-mft/
"Nicholas C.. Saguan, MD",Surgical Critical Care,,"1818 N. Orange Grove Ave.,Suite 307Pomona, CA 91767",,"1818 N. Orange Grove Ave.,Suite 307Pomona, CA 91767",Pomona,CA,91767,909-326-2853,https://www.stfrancismedicalcenter.com/find-a-provider/nicholas-c-saguan-md/
"Rodrigo J.. Rocha, MD",Nephrology,Internal Medicine,"3625 E. MLK Jr. Blvd., Suite 2 Lynwood, CA 90262",,"3625 E. MLK Jr. Blvd., Suite 2 Lynwood, CA 90262",Lynwood,CA,90262,310-638-0533,https://www.stfrancismedicalcenter.com/find-a-provider/rodrigo-j-rocha-md/
"Hani Salehi-Had, MD",Ophthalmology,,"7777 Edinger Ave., Suite 234Huntington Beach, CA 92647",,"7777 Edinger Ave., Suite 234Huntington Beach, CA 92647",Huntington Beach,CA,92647,714-901-2006,https://www.stfrancismedicalcenter.com/find-a-provider/hani-salehi-had-md/
"Dmitriy Romanenko, MD",Obstetrics and Gynecology,,"Crown Medical545 S. Alvarado St., E Los Angeles, CA 90280",Crown Medical,"545 S. Alvarado St., E Los Angeles, CA 90280",Los Angeles,CA,90280,562-904-6033,https://www.stfrancismedicalcenter.com/find-a-provider/dmitriy-romanenko-md/
"Dennis J.. Sanchez, MD",Family Medicine,,"3529 Firestone Blvd.South Gate, CA 90280",,"3529 Firestone Blvd.South Gate, CA 90280",South Gate,CA,90280,323-566-1700,https://www.stfrancismedicalcenter.com/find-a-provider/dennis-j-sanchez-md/
"Antonio N.. Romero, MD",Orthopaedic Surgery- Spine,Orthopaedic Surgery,"10230 E. Artesia Blvd, Suite 209 Bellflower, CA 90706",,"10230 E. Artesia Blvd, Suite 209 Bellflower, CA 90706",Bellflower,CA,90706,323-749-6555,https://www.stfrancismedicalcenter.com/find-a-provider/antonio-n-romero-md/
"David S.. Rosenberg, MD",Plastic Surgery,,"Rosenberg Plastic Surgery145 N Roberson BlvdBeverly Hills, CA 90211",Rosenberg Plastic Surgery,"145 N Roberson BlvdBeverly Hills, CA 90211",Beverly Hills,CA,90211,310-295-7925,https://www.stfrancismedicalcenter.com/find-a-provider/david-s-rosenberg-md/
"Ginni S.. Rosenfeld, MD",Maternal Fetal Medicine,Obstetrics & Gynecology - Gynecologic Oncology,"Ginni Rosenfield MD Inc575 E. Hardy St., Suite 212 Inglewood, CA 90301",Ginni Rosenfield MD Inc,"575 E. Hardy St., Suite 212 Inglewood, CA 90301",Inglewood,CA,90301,310-742-2245,https://www.stfrancismedicalcenter.com/find-a-provider/ginni-s-rosenfeld-md/
"Ronald F.. Rosso, MD",Plastic Surgery,,"Peninsula Plastic Surgery3400 Lomita, Suite 306 Torrance, CA 90505",Peninsula Plastic Surgery,"3400 Lomita, Suite 306 Torrance, CA 90505",Torrance,CA,90505,310-326-3636,https://www.stfrancismedicalcenter.com/find-a-provider/ronald-f-rosso-md/
"Arunpal S.. Sehgal, MD",Pulmonary Medicine,Internal Medicine,"3621 MLK Jr. Blvd., Suite #6 Lynwood, CA 90262",,"3621 MLK Jr. Blvd., Suite #6 Lynwood, CA 90262",Lynwood,CA,90262,310-638-9977,https://www.stfrancismedicalcenter.com/find-a-provider/arunpal-s-sehgal-md/
"Natalie Seiser, MD",General Surgical Oncology,General Surgery,"3628 E. Imperial Highway, Suite 103 Lynwood, CA 90262",,"3628 E. Imperial Highway, Suite 103 Lynwood, CA 90262",Lynwood,CA,90262,310-900-5010,https://www.stfrancismedicalcenter.com/find-a-provider/natalie-seiser-md/
"Pradeep K.. Selvan, MD",Vascular Neurology,,"501 E Hardy St., Ste 315 Inglewood, CA 90301",,"501 E Hardy St., Ste 315 Inglewood, CA 90301",Inglewood,CA,90301,310-419-8610,https://www.stfrancismedicalcenter.com/find-a-provider/pradeep-k-selvan-md/
"Jamshid Shafai, MD",Pediatrics,,"7601 Atlantic Ave.Cudahy, CA 90201",,"7601 Atlantic Ave.Cudahy, CA 90201",Cudahy,CA,90201,323-562-3500,https://www.stfrancismedicalcenter.com/find-a-provider/jamshid-shafai-md/
"Paurush L.. Shah, MD",Gastroenterology,,"Applecare11525 Brookshire Ave, Ste 300 Downey, CA 90241",Applecare,"11525 Brookshire Ave, Ste 300 Downey, CA 90241",Downey,CA,90241,562-869-1070,https://www.stfrancismedicalcenter.com/find-a-provider/paurush-l-shah-md/
"Mona M.. Shah, MD",General Surgery,,"3628 E. Imperial Hwy., Suite 103 Lynwood, CA 90262",,"3628 E. Imperial Hwy., Suite 103 Lynwood, CA 90262",Lynwood,CA,90262,562-543-7056,https://www.stfrancismedicalcenter.com/find-a-provider/mona-m-shah-md/
"Anil Sharma, MD",Psychiatry,,"Alliance for Wellness / SoCal Mental Health14860 Roscoe Blvd, Suite 307 Panorama City, CA 91402",Alliance for Wellness / SoCal Mental Health,"14860 Roscoe Blvd, Suite 307 Panorama City, CA 91402",Panorama City,CA,91402,747-998-0387,https://www.stfrancismedicalcenter.com/find-a-provider/anil-sharma-md/
"Mona S.. Shah, MD",Internal Medicine,,"1600 S. Gaffey St.San Pedro, CA 90731",,"1600 S. Gaffey St.San Pedro, CA 90731",San Pedro,CA,90731,310-548-0201,https://www.stfrancismedicalcenter.com/find-a-provider/mona-s-shah-md/
"Neha Sharma, MD",Internal Medicine,,"Applecare11525 Brookshire Ave, Ste 300 Downey, CA 90241",Applecare,"11525 Brookshire Ave, Ste 300 Downey, CA 90241",Downey,CA,90241,562-869-1070,https://www.stfrancismedicalcenter.com/find-a-provider/neha-sharma-md/
"Almaas A.. Shaikh, MD",Surgical Critical Care,General Surgery,"3737 Martin Luther King J, Suite 301 Lynwood, CA 90262",,"3737 Martin Luther King J, Suite 301 Lynwood, CA 90262",Lynwood,CA,90262,424-403-4778,https://www.stfrancismedicalcenter.com/find-a-provider/almaas-a-shaikh-md/
"Sylvia J.. Shaw, MD","Endocrinology, Diabetes and Metabolism",Internal Medicine,"3621 MLK Jr. Blvd., Suite 6 Lynwood, CA 90262",,"3621 MLK Jr. Blvd., Suite 6 Lynwood, CA 90262",Lynwood,CA,90262,310-537-6397,https://www.stfrancismedicalcenter.com/find-a-provider/sylvia-j-shaw-md/
"Maya C.. Shammas, MD",Ophthalmology,,"3510 E. MLK Jr. Blvd.Lynwood, CA 90262",,"3510 E. MLK Jr. Blvd.Lynwood, CA 90262",Lynwood,CA,90262,310-638-9391,https://www.stfrancismedicalcenter.com/find-a-provider/maya-c-shammas-md/
"Emile G.. Shenouda, MD",Pediatrics,,"10132 California Ave.South Gate, CA 90280",,"10132 California Ave.South Gate, CA 90280",South Gate,CA,90280,323-566-4411,https://www.stfrancismedicalcenter.com/find-a-provider/emile-g-shenouda-md/
"Hanna F.. Shammas, MD",Ophthalmology,,"3510 E. MLK Jr. Blvd.Lynwood, CA 90262",,"3510 E. MLK Jr. Blvd.Lynwood, CA 90262",Lynwood,CA,90262,310-638-9391,https://www.stfrancismedicalcenter.com/find-a-provider/hanna-f-shammas-md/
"Tchaka B.. Shepherd, MD",Surgical Critical Care,General Surgery,"3737 Martin Luther King Jr. Blvd., Suite 301 Lynwood, CA 90262",,"3737 Martin Luther King Jr. Blvd., Suite 301 Lynwood, CA 90262",Lynwood,CA,90262,424-403-4778,https://www.stfrancismedicalcenter.com/find-a-provider/tchaka-b-shepherd-md/
"Reza Sharafi, MD",Internal Medicine,,"11544 Downey Ave.Downey, CA 90241",,"11544 Downey Ave.Downey, CA 90241",Downey,CA,90241,562-922-2020,https://www.stfrancismedicalcenter.com/find-a-provider/reza-sharafi-md/
"Imran M.. Siddiqui, MD",Internal Medicine,,"Epic Medical Group4955 Van Nuys Blvd, Ste 308 Sherman Oaks, CA 91403",Epic Medical Group,"4955 Van Nuys Blvd, Ste 308 Sherman Oaks, CA 91403",Sherman Oaks,CA,91403,657-276-7080,https://www.stfrancismedicalcenter.com/find-a-provider/imran-m-siddiqui-md/
"Imran Sharief, MD",Critical Care Medicine,,"PMP Medical Corporation  (Contract - ICU Intensivists)3630 E. Imperial Hwy.Lynwood, CA 90262",PMP Medical Corporation  (Contract - ICU Intensivists),"3630 E. Imperial Hwy.Lynwood, CA 90262",Lynwood,CA,90262,310-900-8090,https://www.stfrancismedicalcenter.com/find-a-provider/imran-sharief-md/
"Andrew H.. Singleton, MD",Surgical Critical Care,,"Desert Trauma Surgeons3628 E. Imperial Hwy, Suite 408Lynwood, CA 90262",Desert Trauma Surgeons,"3628 E. Imperial Hwy, Suite 408Lynwood, CA 90262",Lynwood,CA,90262,310-554-4127,https://www.stfrancismedicalcenter.com/find-a-provider/andrew-h-singleton-md/
"Jack H.. Sills, MD",Neonatal-Perinatal Medicine,Pediatrics,"1201 W. La Veta Ave.Orange, CA 92868",,"1201 W. La Veta Ave.Orange, CA 92868",Orange,CA,92868,714-509-8632,https://www.stfrancismedicalcenter.com/find-a-provider/jack-h-sills-md/
"Sanjay P.. Sinha, MD",Pediatric Cardiology,Pediatrics,"1201 W. La Veta Ave.Orange, CA 92868",,"1201 W. La Veta Ave.Orange, CA 92868",Orange,CA,92868,714-509-3939,https://www.stfrancismedicalcenter.com/find-a-provider/sanjay-p-sinha-md/
"Jessica B.. Simpson, MD",Obstetrics and Gynecology,,"8077 Florence Ave #112Downey, CA 90240",,"8077 Florence Ave #112Downey, CA 90240",Downey,CA,90240,562-904-6031,https://www.stfrancismedicalcenter.com/find-a-provider/jessica-b-simpson-md/
"Brittany N.. Slaughter, PA",Physician Assistant,,"Vituity3630 E. Imperial Hwy., Emergency Department Lynwood, CA 90262",Vituity,"3630 E. Imperial Hwy., Emergency Department Lynwood, CA 90262",Lynwood,CA,90262,310-900-4534,https://www.stfrancismedicalcenter.com/find-a-provider/brittany-n-slaughter-pa/
"Edward H.. Sims, MD",Surgical Critical Care,,"3625 MLK Jr. Blvd., Suite 9 Lynwood, CA 90262",,"3625 MLK Jr. Blvd., Suite 9 Lynwood, CA 90262",Lynwood,CA,90262,310-631-9073,https://www.stfrancismedicalcenter.com/find-a-provider/edward-h-sims-md/
"Barbara A.. Smith, MD",Anesthesiology,,"Westside Pain Management, Inc.17822 Beach Blvd., Suite 300Huntington Beach, CA 92647","Westside Pain Management, Inc.","17822 Beach Blvd., Suite 300Huntington Beach, CA 92647",Huntington Beach,CA,92647,714-375-1122,https://www.stfrancismedicalcenter.com/find-a-provider/barbara-a-smith-md/
"Reddy S.. Singasani, MD",Critical Care Medicine,Nephrology,"Pulmonary Consultants and Wellness Center, Inc.8540 South Sepulveda Blvd, Suite 1010 Los Angeles, CA 90045","Pulmonary Consultants and Wellness Center, Inc.","8540 South Sepulveda Blvd, Suite 1010 Los Angeles, CA 90045",Los Angeles,CA,90045,310-295-0075,https://www.stfrancismedicalcenter.com/find-a-provider/reddy-s-singasani-md/
"Martin L.. Smith, DPM",Podiatrist,Wound Care,"903 W. 7th St.Oxnard, CA 93030",,"903 W. 7th St.Oxnard, CA 93030",Oxnard,CA,93030,805-263-4090,https://www.stfrancismedicalcenter.com/find-a-provider/martin-l-smith-dpm/
"Willy G.. Singh, DO",Nephrology,Internal Medicine,"Renal Medical Associates101 E. Beverly Blvd., Suite 304 Montebello, CA 90640",Renal Medical Associates,"101 E. Beverly Blvd., Suite 304 Montebello, CA 90640",Montebello,CA,90640,323-722-7418,https://www.stfrancismedicalcenter.com/find-a-provider/willy-g-singh-do/
"Tanya S.. Steward, NP",Nurse Practitioner,,"8043 2nd Ave, Ste 105 Downey, CA 90241",,"8043 2nd Ave, Ste 105 Downey, CA 90241",Downey,CA,90241,562-862-1134,https://www.stfrancismedicalcenter.com/find-a-provider/tanya-s-steward-np/
"Samad A.. Sohail, PA",Physician Assistant,,"Vituity3630 E. Imperial Hwy.Lynwood, CA 90262",Vituity,"3630 E. Imperial Hwy.Lynwood, CA 90262",Lynwood,CA,90262,310-900-4534,https://www.stfrancismedicalcenter.com/find-a-provider/samad-a-sohail-pa/
"Anantjit Singh, MD",Clinical Cardiac Electrophysiology,,"11544 Downey AvenueDowney, CA 90241",,"11544 Downey AvenueDowney, CA 90241",Downey,CA,90241,562-923-2466,https://www.stfrancismedicalcenter.com/find-a-provider/anantjit-singh-md/
"Jeffrey D.. Strickland, MD",Anesthesiology,,"SFMC - Anesthsia Department3630 E. Imperial Hwy.Lynwood, CA 90262",SFMC - Anesthsia Department,"3630 E. Imperial Hwy.Lynwood, CA 90262",Lynwood,CA,90262,310-900-2729,https://www.stfrancismedicalcenter.com/find-a-provider/jeffrey-d-strickland-md/
"Kaveh Soleimanpour, MD",Diagnostic Radiology,Nuclear Radiology,"Advanced TeleradiologyP.O. Box 53803Irvine, CA 92619",Advanced Teleradiology,"P.O. Box 53803Irvine, CA 92619",Irvine,CA,92619,888-225-0628,https://www.stfrancismedicalcenter.com/find-a-provider/kaveh-soleimanpour-md/
"Shantall L.. Strozier, CRNA",Certified Registered Nurse Anesthetist,,"3207, South Anchovy Avenue SAN PEDRO, CA 90732",,"3207, South Anchovy Avenue SAN PEDRO, CA 90732",SAN PEDRO,CA,90732,310-387-7018,https://www.stfrancismedicalcenter.com/find-a-provider/shantall-l-strozier-crna/
"Ernest R.. Soto, Tech",Psychiatry,,"St. Francis Medical Center3630 E. Imperial Highway, Tower Suite 3337 Lynwood, CA 90262",St. Francis Medical Center,"3630 E. Imperial Highway, Tower Suite 3337 Lynwood, CA 90262",Lynwood,CA,90262,310-900-8900,https://www.stfrancismedicalcenter.com/find-a-provider/ernest-r-soto-tech/
"Aaron M.. Strumwasser, MD",Surgical Critical Care,General Surgery,"Desert Trauma Surgeons3628 E. Imperial Hwy, Suite 408Lynwood, CA 90262",Desert Trauma Surgeons,"3628 E. Imperial Hwy, Suite 408Lynwood, CA 90262",Lynwood,CA,90262,310-554-4127,https://www.stfrancismedicalcenter.com/find-a-provider/aaron-m-strumwasser-md/
"Mahathep M.. Srikureja, DO",Anesthesiology,,"2021 Santa Monica Blvd. 540ESanta Monica, CA 90404",,"2021 Santa Monica Blvd. 540ESanta Monica, CA 90404",Santa Monica,CA,90404,626-235-5725,https://www.stfrancismedicalcenter.com/find-a-provider/mahathep-m-srikureja-do/
"Tiffany N.. Su, MD",Pain Medicine,,"Ajay Patel Md, Apmc10441 Lakewood Blvd Ste EDowney, CA 90241","Ajay Patel Md, Apmc","10441 Lakewood Blvd Ste EDowney, CA 90241",Downey,CA,90241,562-869-3585,https://www.stfrancismedicalcenter.com/find-a-provider/tiffany-n-su-md/
"Debra L.. Stafford, MD",Plastic Surgery,General Surgery,"6051 W. San Vicente Blvd.Los Angeles, CA 90036",,"6051 W. San Vicente Blvd.Los Angeles, CA 90036",Los Angeles,CA,90036,323-954-9161,https://www.stfrancismedicalcenter.com/find-a-provider/debra-l-stafford-md/
"Medardo C.. Supnet, MD",Neonatal-Perinatal Medicine,Pediatrics,"Pediatric Clinic3585 E. Imperial Hwy.Lynwood, CA 90262",Pediatric Clinic,"3585 E. Imperial Hwy.Lynwood, CA 90262",Lynwood,CA,90262,310-605-4260,https://www.stfrancismedicalcenter.com/find-a-provider/medardo-c-supnet-md/
"Malgorzata V.. Stanczyk, MD",General Surgery,,"432 E. 10th St.Long Beach, CA 90813",,"432 E. 10th St.Long Beach, CA 90813",Long Beach,CA,90813,562-491-7935,https://www.stfrancismedicalcenter.com/find-a-provider/malgorzata-v-stanczyk-md/
"Velen Tat, PA",Physician Assistant,,"Vituity3630 E. Imperial Hwy., Emergency Department Lynwood, CA 90262",Vituity,"3630 E. Imperial Hwy., Emergency Department Lynwood, CA 90262",Lynwood,CA,90262,310-900-4534,https://www.stfrancismedicalcenter.com/find-a-provider/velen-tat-pa/
"Albert K.. Szeto, MD",Diagnostic Radiology,,"SFMC - Radiology Dept3630 E. Imperial Hwy.Lynwood, CA 90262",SFMC - Radiology Dept,"3630 E. Imperial Hwy.Lynwood, CA 90262",Lynwood,CA,90262,310-900-2750,https://www.stfrancismedicalcenter.com/find-a-provider/albert-k-szeto-md/
"Donald V.. Stevenson, MD",Orthopaedic Surgery,,"4477 W. 118th St., Suite 403 Hawthorne, CA 90250",,"4477 W. 118th St., Suite 403 Hawthorne, CA 90250",Hawthorne,CA,90250,310-674-1211,https://www.stfrancismedicalcenter.com/find-a-provider/donald-v-stevenson-md/
"James M.. Tatum, MD",Surgical Critical Care,,"Desert Trauma Surgeons3628 E. Imperial Hwy, Suite 408Lynwood, CA 90262",Desert Trauma Surgeons,"3628 E. Imperial Hwy, Suite 408Lynwood, CA 90262",Lynwood,CA,90262,310-554-4127,https://www.stfrancismedicalcenter.com/find-a-provider/james-m-tatum-md/
"Meher F.. Tabatabai, MD",Infectious Disease,Internal Medicine,"3621 MLK Jr. Blvd., Suite 6 Lynwood, CA 90262",,"3621 MLK Jr. Blvd., Suite 6 Lynwood, CA 90262",Lynwood,CA,90262,310-537-1503,https://www.stfrancismedicalcenter.com/find-a-provider/meher-f-tabatabai-md/
"Karina G.. Tavakalyan, DPM",Podiatrist,Wound Care,"250 N Robertson Blvd., Suite 106 Beverly Hills, CA 90211",,"250 N Robertson Blvd., Suite 106 Beverly Hills, CA 90211",Beverly Hills,CA,90211,310-919-4179,https://www.stfrancismedicalcenter.com/find-a-provider/karina-g-tavakalyan-dpm/
"Christiana P.. Tai, MD",Pediatric Cardiology,Pediatrics,"Pacific Pediatric Cardi. Med. Group, INC50 Bellefontaine St., Suite 405 Pasadena, CA 91105","Pacific Pediatric Cardi. Med. Group, INC","50 Bellefontaine St., Suite 405 Pasadena, CA 91105",Pasadena,CA,91105,626-796-9259,https://www.stfrancismedicalcenter.com/find-a-provider/christiana-p-tai-md/
"Odette R.. Tawadrous, MD",Internal Medicine,,"3625 MLK Jr. Blvd., Suite 10 Lynwood, CA 90262",,"3625 MLK Jr. Blvd., Suite 10 Lynwood, CA 90262",Lynwood,CA,90262,310-223-1429,https://www.stfrancismedicalcenter.com/find-a-provider/odette-r-tawadrous-md/
"Chong H.. Tak, MD",Pediatrics,,"3628 E. Imperial Hwy., Suite 303 Lynwood, CA 90262",,"3628 E. Imperial Hwy., Suite 303 Lynwood, CA 90262",Lynwood,CA,90262,310-900-7360,https://www.stfrancismedicalcenter.com/find-a-provider/chong-h-tak-md/
"Khaled A.. Tawansy, MD",Ophthalmology,,"Children's Retina Institute7447 N. Figueroa St., Suite 200 Los Angeles, CA 90041",Children's Retina Institute,"7447 N. Figueroa St., Suite 200 Los Angeles, CA 90041",Los Angeles,CA,90041,323-257-3937,https://www.stfrancismedicalcenter.com/find-a-provider/khaled-a-tawansy-md/
"Kaushal R.. Tamboli, MD",Interventional Cardiology,,"Cardiovascular Medical Associates8317 Davis St., Suite A Downey, CA 90241",Cardiovascular Medical Associates,"8317 Davis St., Suite A Downey, CA 90241",Downey,CA,90241,562-869-1511,https://www.stfrancismedicalcenter.com/find-a-provider/kaushal-r-tamboli-md/
"Kiriaki F.. Taylor, PA",Physician Assistant,Wound Care,"4911 Van Nuys BlvdSherman Oaks, CA 91403",,"4911 Van Nuys BlvdSherman Oaks, CA 91403",Sherman Oaks,CA,91403,818-205-1995,https://www.stfrancismedicalcenter.com/find-a-provider/kiriaki-f-taylor-pa/
"Naureen Tareen, MD",Nephrology,Internal Medicine,"3625 MLK Jr. Blvd., Suite 2 Lynwood, CA 90262",,"3625 MLK Jr. Blvd., Suite 2 Lynwood, CA 90262",Lynwood,CA,90262,714-403-9942,https://www.stfrancismedicalcenter.com/find-a-provider/naureen-tareen-md/
"Phuong C.. Truong-Yue, MD",Obstetrics and Gynecology,,"8500 Florence Ave., Suite 200 Downey, CA 90240",,"8500 Florence Ave., Suite 200 Downey, CA 90240",Downey,CA,90240,562-869-4579,https://www.stfrancismedicalcenter.com/find-a-provider/phuong-c-truong-yue-md/
"Bhavik V.. Thakkar, MD",Internal Medicine,,"P.O. Box 1088Artesia, CA 90702",,"P.O. Box 1088Artesia, CA 90702",Artesia,CA,90702,562-869-1070,https://www.stfrancismedicalcenter.com/find-a-provider/bhavik-v-thakkar-md/
"Mark C.. Tsai, MD",Internal Medicine,,"16415 S. Colorado Ave, Suite 101 Paramount, CA 90723",,"16415 S. Colorado Ave, Suite 101 Paramount, CA 90723",Paramount,CA,90723,562-634-6341,https://www.stfrancismedicalcenter.com/find-a-provider/mark-c-tsai-md/
"Denacel Tolentino, NP",Critical Care Medicine,,"Pulmonary Consultants and Wellness Center, Inc.8540 South Sepulveda Blvd, Suite 1010 Los Angeles, CA 90045","Pulmonary Consultants and Wellness Center, Inc.","8540 South Sepulveda Blvd, Suite 1010 Los Angeles, CA 90045",Los Angeles,CA,90045,310-295-0075,https://www.stfrancismedicalcenter.com/find-a-provider/denacel-tolentino-np/
"Tony K.. Tseng, MD",Internal Medicine,,"Applecare Hospitalist Medical GroupP.O. Box 1088Artesia, CA 90702",Applecare Hospitalist Medical Group,"P.O. Box 1088Artesia, CA 90702",Artesia,CA,90702,562-869-1070,https://www.stfrancismedicalcenter.com/find-a-provider/tony-k-tseng-md/
"Jose F.. Torreblanca, DO",Pediatrics,,"10001 California Ave.South Gate, CA 90280",,"10001 California Ave.South Gate, CA 90280",South Gate,CA,90280,323-564-4408,https://www.stfrancismedicalcenter.com/find-a-provider/jose-f-torreblanca-do/
"Thuc B.. Tu, MD",Nephrology,Internal Medicine,"6552 Bolsa Ave., Suite N Huntington Beach, CA 92647",,"6552 Bolsa Ave., Suite N Huntington Beach, CA 92647",Huntington Beach,CA,92647,714-898-9635,https://www.stfrancismedicalcenter.com/find-a-provider/thuc-b-tu-md/
"Ngoc-Tram G.. Tran, DO",Nephrology,Internal Medicine,"ProHealth Partners A Medical Group, Inc.2888 Long Beach Blvd., Suite 235 Long Beach, CA 90806","ProHealth Partners A Medical Group, Inc.","2888 Long Beach Blvd., Suite 235 Long Beach, CA 90806",Long Beach,CA,90806,562-424-4447,https://www.stfrancismedicalcenter.com/find-a-provider/ngoc-tram-g-tran-do/
"Kyaw N.. Tun, DO",Diagnostic Radiology,Neuroradiology,"Advanced TeleRadiologyP.O. Box 53803Irvine, CA 92603",Advanced TeleRadiology,"P.O. Box 53803Irvine, CA 92603",Irvine,CA,92603,888-225-0628,https://www.stfrancismedicalcenter.com/find-a-provider/kyaw-n-tun-do/
"Wilbur Troutman, MD",Obstetrics and Gynecology,,"3660 E. Imperial Hwy.Lynwood, CA 90262",,"3660 E. Imperial Hwy.Lynwood, CA 90262",Lynwood,CA,90262,310-631-9988,https://www.stfrancismedicalcenter.com/find-a-provider/wilbur-troutman-md/
"Nnaemeka C.. Udoh, MD",General Surgery,,"3314 W. Vernon Ave.Los Angeles, CA 90008",,"3314 W. Vernon Ave.Los Angeles, CA 90008",Los Angeles,CA,90008,323-298-0455,https://www.stfrancismedicalcenter.com/find-a-provider/nnaemeka-c-udoh-md/
"Grace J.. Trujillo-Gerardo, Tech",Psychiatry,,"PET Team3630 E. Imperial Highway, Behavioral Health Department Lynwood, CA 90262",PET Team,"3630 E. Imperial Highway, Behavioral Health Department Lynwood, CA 90262",Lynwood,CA,90262,310-900-8210,https://www.stfrancismedicalcenter.com/find-a-provider/grace-j-trujillo-gerardo-tech/
"Chinedu Ugorji, MD",Internal Medicine,,"Medical Office of Chinedu Ugorji16660 Parmount Blvd., Suite 208 Paramount, CA 90723",Medical Office of Chinedu Ugorji,"16660 Parmount Blvd., Suite 208 Paramount, CA 90723",Paramount,CA,90723,562-408-0131,https://www.stfrancismedicalcenter.com/find-a-provider/chinedu-ugorji-md/
"Stacey D.. Valdez, DPM",Podiatrist,,"3616 E. 1st St.Los Angeles, CA 90063",,"3616 E. 1st St.Los Angeles, CA 90063",Los Angeles,CA,90063,323-264-6157,https://www.stfrancismedicalcenter.com/find-a-provider/stacey-d-valdez-dpm/
"Danielle B.. Unrein, DNP",Nurse Practitioner,,"Alliance for Wellness / SoCal Mental Health14860 Roscoe Blvd, Suite 307 Panorama City, CA 91402",Alliance for Wellness / SoCal Mental Health,"14860 Roscoe Blvd, Suite 307 Panorama City, CA 91402",Panorama City,CA,91402,747-998-0387,https://www.stfrancismedicalcenter.com/find-a-provider/danielle-b-unrein-dnp/
"Eugene T.. Van, DO",Pulmonary Medicine,Internal Medicine,"Pulmonary Consultants and Wellness Center, Inc.8540 South Sepulveda Blvd, Suite 1010 Los Angeles, CA 90045","Pulmonary Consultants and Wellness Center, Inc.","8540 South Sepulveda Blvd, Suite 1010 Los Angeles, CA 90045",Los Angeles,CA,90045,310-295-0075,https://www.stfrancismedicalcenter.com/find-a-provider/eugene-t-van-do/
"Miguel A.. Unzueta, MD",Ophthalmology,,"Mercy Eye Care5750 Downey Ave., Suite 101 Lakewood, CA 90712",Mercy Eye Care,"5750 Downey Ave., Suite 101 Lakewood, CA 90712",Lakewood,CA,90712,562-866-8293,https://www.stfrancismedicalcenter.com/find-a-provider/miguel-a-unzueta-md/
"Alejandro Varela, PA",Physician Assistant,,"Vituity3630 E. Imperial Hwy., Emergency Department Lynwood, CA 90262",Vituity,"3630 E. Imperial Hwy., Emergency Department Lynwood, CA 90262",Lynwood,CA,90262,310-900-4534,https://www.stfrancismedicalcenter.com/find-a-provider/alejandro-varela-pa/
"Kristen R.. Uquillas, MD",Maternal Fetal Medicine,Obstetrics and Gynecology,"4201 Torrance Blvd, Suite 540Torrance, CA 90503",,"4201 Torrance Blvd, Suite 540Torrance, CA 90503",Torrance,CA,90503,917-846-5688,https://www.stfrancismedicalcenter.com/find-a-provider/kristen-r-uquillas-md/
"Alyssa Vasquez, PA",Physician Assistant,,"Vituity3630 E. Imperial Hwy., Emergency Department Lynwood, CA 90262",Vituity,"3630 E. Imperial Hwy., Emergency Department Lynwood, CA 90262",Lynwood,CA,90262,310-900-4534,https://www.stfrancismedicalcenter.com/find-a-provider/alyssa-vasquez-pa/
"Cherry C.. Uy, MD",Neonatal-Perinatal Medicine,Pediatrics,"UC Irvine Medical Center333 City Blvd, Suite 850 Orange, CA 92868",UC Irvine Medical Center,"333 City Blvd, Suite 850 Orange, CA 92868",Orange,CA,92868,714-456-6933,https://www.stfrancismedicalcenter.com/find-a-provider/cherry-c-uy-md/
"Shannon M.. Voss, PA",Physician Assistant,,"Vituity3630 E. Imperial Hwy., Emergency Department Lynwood, CA 90262",Vituity,"3630 E. Imperial Hwy., Emergency Department Lynwood, CA 90262",Lynwood,CA,90262,310-900-4534,https://www.stfrancismedicalcenter.com/find-a-provider/shannon-m-voss-pa/
"Kimberly R.. Vail, RN",Psychiatry,,,,,,,,310-900-8210,https://www.stfrancismedicalcenter.com/find-a-provider/?fbclid=IwAR0Gwi2H4D1uqJTOQnCsPcbGhf8EH8_B7z-ZdbsPr8xsMN-9TbY4E-EoPc4
"Randy E.. Woo, MD",Emergency Medicine,,"Vituity3630 E. Imperial Hwy., Emergency Department Lynwood, CA 90262",Vituity,"3630 E. Imperial Hwy., Emergency Department Lynwood, CA 90262",Lynwood,CA,90262,310-900-4525,https://www.stfrancismedicalcenter.com/find-a-provider/randy-e-woo-md/
"Daniel Walk, PA",Physician Assistant,Wound Care,"250 N Robertson Blvd Suite 104-1CBeverly Hills, CA 90211",,"250 N Robertson Blvd Suite 104-1CBeverly Hills, CA 90211",Beverly Hills,CA,90211,310-919-4179,https://www.stfrancismedicalcenter.com/find-a-provider/daniel-walk-pa/
"James T.. Wu, MD",Thoracic Surgery,General Surgery,"So Cal Thoracic Surgical Associates, Inc.260 S. Los Robles Ave, Suite 118 Pasadena, CA 91101","So Cal Thoracic Surgical Associates, Inc.","260 S. Los Robles Ave, Suite 118 Pasadena, CA 91101",Pasadena,CA,91101,626-666-5820,https://www.stfrancismedicalcenter.com/find-a-provider/james-t-wu-md/
"Olukemi A.. Wallace, MD",Hematology/Oncology,Internal Medicine,"2220 W. Manchester Blvd.Inglewood, CA 90305",,"2220 W. Manchester Blvd.Inglewood, CA 90305",Inglewood,CA,90305,310-644-8400,https://www.stfrancismedicalcenter.com/find-a-provider/olukemi-a-wallace-md/
"Sasan Yadegar, MD",Neurological Surgery,,"575 E. Hardy St., #220Inglewood, CA 90301",,"575 E. Hardy St., #220Inglewood, CA 90301",Inglewood,CA,90301,310-673-7724,https://www.stfrancismedicalcenter.com/find-a-provider/sasan-yadegar-md/
"Jamie M.. Weiss, MD",Cardiovascular Disease,Internal Medicine,"Cardio Medical Consultants Group3737 MLK Jr. Blvd., Suite 401 Lynwood, CA 90262",Cardio Medical Consultants Group,"3737 MLK Jr. Blvd., Suite 401 Lynwood, CA 90262",Lynwood,CA,90262,310-604-0443,https://www.stfrancismedicalcenter.com/find-a-provider/jamie-m-weiss-md/
"Malvin Y.. Yan, DO",Nephrology,Internal Medicine,"Dr. Malvin Yan, Inc9844 Atlantic Ave., Suite B South Gate, CA 90280","Dr. Malvin Yan, Inc","9844 Atlantic Ave., Suite B South Gate, CA 90280",South Gate,CA,90280,310-886-0869,https://www.stfrancismedicalcenter.com/find-a-provider/malvin-y-yan-do/
"Jason S.. Wiguna, DO",Internal Medicine,,"Epic Medical Group4955 Van Nuys Blvd, Ste 308 Sherman Oaks, CA 91403",Epic Medical Group,"4955 Van Nuys Blvd, Ste 308 Sherman Oaks, CA 91403",Sherman Oaks,CA,91403,657-276-7080,https://www.stfrancismedicalcenter.com/find-a-provider/jason-s-wiguna-do/
"Sita L.. Yanamadala, MD",Nephrology,Internal Medicine,"Renal Medical Associates3625 E. MLK Jr. Blvd., Suite 2 Lynwood, CA 90262",Renal Medical Associates,"3625 E. MLK Jr. Blvd., Suite 2 Lynwood, CA 90262",Lynwood,CA,90262,310-638-0533,https://www.stfrancismedicalcenter.com/find-a-provider/sita-l-yanamadala-md/
"Paul J.. Wisniewski, DO",Surgical Critical Care,General Surgery,"Desert Trauma Surgeons3628 E. Imperial Hwy, Suite 408Lynwood, CA 90262",Desert Trauma Surgeons,"3628 E. Imperial Hwy, Suite 408Lynwood, CA 90262",Lynwood,CA,90262,310-554-4127,https://www.stfrancismedicalcenter.com/find-a-provider/paul-j-wisniewski-do/
"Helen Yang, DO",Obstetrics and Gynecology,,"AllSafe Medical Group8077 Florence Ave, Ste 112 Downey, CA 90242",AllSafe Medical Group,"8077 Florence Ave, Ste 112 Downey, CA 90242",Downey,CA,90242,562-904-6031,https://www.stfrancismedicalcenter.com/find-a-provider/helen-yang-do/
"Emilia A.. Wobga-Pasiah, MD",Family Medicine,,"Epic Medical Group4955 Van Nuys Blvd, Ste 308 Sherman Oaks, CA 91403",Epic Medical Group,"4955 Van Nuys Blvd, Ste 308 Sherman Oaks, CA 91403",Sherman Oaks,CA,91403,213-279-1220,https://www.stfrancismedicalcenter.com/find-a-provider/emilia-a-wobga-pasiah-md/
"Parham Yashar, MD",Neurological Surgery,,"Yashar Neurosurgery8436 W. 3rd Street, Suite 800Los Angeles, CA 90048",Yashar Neurosurgery,"8436 W. 3rd Street, Suite 800Los Angeles, CA 90048",Los Angeles,CA,90048,424-209-2669,https://www.stfrancismedicalcenter.com/find-a-provider/parham-yashar-md/
"Stuart Wolf, MD",Family Medicine,,"Stuart Wolf  MD3625 E. MLK Jr. Blvd., Suite 9 Lynwood, CA 90262",Stuart Wolf  MD,"3625 E. MLK Jr. Blvd., Suite 9 Lynwood, CA 90262",Lynwood,CA,90262,310-223-1444,https://www.stfrancismedicalcenter.com/find-a-provider/stuart-wolf-md/
"Maryam Zamanian, MD",Critical Care Medicine,Internal Medicine,"Pulmonary Consultants and Wellness Center, Inc.8540 South Sepulveda Blvd, Suite 1010 Los Angeles, CA 90045","Pulmonary Consultants and Wellness Center, Inc.","8540 South Sepulveda Blvd, Suite 1010 Los Angeles, CA 90045",Los Angeles,CA,90045,310-295-0075,https://www.stfrancismedicalcenter.com/find-a-provider/maryam-zamanian-md/
"Thomas C.. Yee, MD",Anesthesiology,,"2995 South Jones Blvd, #DLas Vegas, NV 89146",,"2995 South Jones Blvd, #DLas Vegas, NV 89146",Las Vegas,NV,89146,800-276-7021,https://www.stfrancismedicalcenter.com/find-a-provider/thomas-c-yee-md/
"Amirhossein Zangiabadi, MD",Neurology,Internal Medicine,"3630 E. Imperial Hwy., Respiratory/Neuro Dept. #2120 (Appts Secondary Address) Lynwood, CA 90262",,"3630 E. Imperial Hwy., Respiratory/Neuro Dept. #2120 (Appts Secondary Address) Lynwood, CA 90262",Lynwood,CA,90262,310-900-8526,https://www.stfrancismedicalcenter.com/find-a-provider/amirhossein-zangiabadi-md/
"Brian C.. Yi, DPM",Podiatrist,,"3616 E 1st StreetLos Angeles, CA 90063",,"3616 E 1st StreetLos Angeles, CA 90063",Los Angeles,CA,90063,323-264-6157,https://www.stfrancismedicalcenter.com/find-a-provider/brian-c-yi-dpm/
"Mehdi Zargarian, MD",Clinical Cardiac Electrophysiology,,"8423 Florence Ave., Suite C Downey, CA 90240",,"8423 Florence Ave., Suite C Downey, CA 90240",Downey,CA,90240,562-861-6371,https://www.stfrancismedicalcenter.com/find-a-provider/mehdi-zargarian-md/
"Paul H.. Yoshino, MD",Interventional Cardiology,,"Cardiovascular Medical Associates8317 Davis St., Suite A Downey, CA 90241",Cardiovascular Medical Associates,"8317 Davis St., Suite A Downey, CA 90241",Downey,CA,90241,562-869-1511,https://www.stfrancismedicalcenter.com/find-a-provider/paul-h-yoshino-md/
"Daniel H.. Zee, MD",Radiology - Telemedicine,,"P. O. Box 53803, P. O. Box 53803 Irvine, CA 92619",,"P. O. Box 53803, P. O. Box 53803 Irvine, CA 92619",Irvine,CA,92619,888-662-5321,https://www.stfrancismedicalcenter.com/find-a-provider/daniel-h-zee-md/
"Harding G.. Young, MD",Family Medicine,,"3617 E. MLK Jr. Blvd.Lynwood, CA 90262",,"3617 E. MLK Jr. Blvd.Lynwood, CA 90262",Lynwood,CA,90262,310-631-2660,https://www.stfrancismedicalcenter.com/find-a-provider/harding-g-young-md/
"Anne M.. Zepeda-Tiscareno, MD",Neonatal-Perinatal Medicine,Pediatrics,"1201 W. La Veta Ave.Orange, CA 92868",,"1201 W. La Veta Ave.Orange, CA 92868",Orange,CA,92868,714-509-3096,https://www.stfrancismedicalcenter.com/find-a-provider/anne-m-zepeda-tiscareno-md/
"Chibong A.. Yu, DO",Infectious Disease,,"1023 Whispering Oaks Dr.Arcadia, CA 91006",,"1023 Whispering Oaks Dr.Arcadia, CA 91006",Arcadia,CA,91006,626-515-4130,https://www.stfrancismedicalcenter.com/find-a-provider/chibong-a-yu-do/
"Manuel Zevallos, MD",Hematology/Oncology,Internal Medicine,"3628 E. Imperial Hwy., Suite 401Lynwood, CA 90262",,"3628 E. Imperial Hwy., Suite 401Lynwood, CA 90262",Lynwood,CA,90262,310-667-4000,https://www.stfrancismedicalcenter.com/find-a-provider/manuel-zevallos-md/
"Daniel M.. Zinar, MD",Orthopaedic Surgery,,"2865 Atlantic Ave., Suite 221 Long Beach, CA 90806",,"2865 Atlantic Ave., Suite 221 Long Beach, CA 90806",Long Beach,CA,90806,562-912-7437,https://www.stfrancismedicalcenter.com/find-a-provider/daniel-m-zinar-md/
"Brian M.. Zwecker, MD",Nephrology,Internal Medicine,"The Kidney Specialists Medical Corp101 E. Beverly Blvd., Suite 304 Montebello, CA 90640",The Kidney Specialists Medical Corp,"101 E. Beverly Blvd., Suite 304 Montebello, CA 90640",Montebello,CA,90640,323-722-7418,https://www.stfrancismedicalcenter.com/find-a-provider/brian-m-zwecker-md/
